Org Name,Org Code,Org Type,Function,Contact Name,Address 1,Address 2,Town,State,Zip,Phone,Fax,
Abundant Life Chr School,03420805,Private (Non-Public/Non-Special Ed) Schools,Principal,Scott Stevens,173 Church Street,,Wilmington,MA,01887,978-657-8710,978-658-2739,"PK,K,01,02,03,04,05,06,07,08"
Acad of Notre Dame Elem,03010804,Private (Non-Public/Non-Special Ed) Schools,Principal,James Flynn,180 Middlesex Rd,,Tyngsborough,MA,01879,978-649-7611,978-649-2909,"K,01,02,03,04,05,06,07,08"
Academy Hill School,02810805,Private (Non-Public/Non-Special Ed) Schools,Principal,Zachary Verriden,1190 Liberty Street,,Springfield,MA,01104,413-788-0300,413-781-4806,"PK,K,01,02,03,04,05,06,07,08"
Academy of Early Learning,00200805,Private (Non-Public/Non-Special Ed) Schools,Principal,Paula Levesque,465 Falmouth Rd,,Hyannis,MA,02601,508-790-8104,508-790-8968,"PK,K,01,02,03"
Academy of Notre Dame H S,03010805,Private (Non-Public/Non-Special Ed) Schools,Principal,James Flynn,180 Middlesex Rd,,Tyngsborough,MA,01879,978-649-7272,978-649-2909,"09,10,11,12"
Acera School,01780815,Private (Non-Public/Non-Special Ed) Schools,Principal,Courtney Dickinson,5 Lowell Avenue,,Winchester,MA,01890,781-729-3489,--,"K,01,02,03,04,05,06,07,08"
Advent,00350702,Private (Non-Public/Non-Special Ed) Schools,Principal,Nicole DuFauchard,17 Brimmer Street,,Boston,MA,02108,617-742-0520,--,"K,01,02,03,04,05,06"
Al-Hamra Academy,02710816,Private (Non-Public/Non-Special Ed) Schools,Principal,Noor Ali,435 South Street,,Shrewsbury,MA,01545,508-845-7000,508-845-7002,"PK,K,01,02,03,04,05,06,07,08"
Al-Noor Academy,01670820,Private (Non-Public/Non-Special Ed) Schools,Principal,Sofiane Hafiani,20 Church Street,,Mansfield,MA,02048,508-261-7077,508-261-8884,"06,07,08,09,10,11,12"
Al-Noor Academy,02660820,Private (Non-Public/Non-Special Ed) Schools,Principal,Nurizzah Khalil,84 Chase Drive,,Sharon,MA,02067,781-784-0400,781-784-3614,"PK,K,01,02,03,04,05"
Alhuda Academy,03480822,Private (Non-Public/Non-Special Ed) Schools,Principal,Nadeem Sikandar,248 East Mountain St.,,Worcester,MA,01606,508-854-4700,508-854-4711,"PK,K,01,02,03,04,05,06,07,08"
All Saints Academy - St. Louis Campus,03160820,Private (Non-Public/Non-Special Ed) Schools,Principal,Joan Matys,48 Negus Street,,Webster,MA,01570,508-943-0257,508-461-9666,"PK,K,01,02,03,04,05,06,07,08"
All Saints Catholic School,02010810,Private (Non-Public/Non-Special Ed) Schools,Principal,Susan Massoud,115 Illinois Street,,New Bedford,MA,02745,508-995-3696,508-998-0840,"PK,K,01,02,03,04,05,06,07,08"
Amherst Montessori School,00080805,Private (Non-Public/Non-Special Ed) Schools,Principal,Shelley Poreda,27 Pomeroy Lane,,Amherst,MA,01002,413-253-3101,413-253-1620,"PK,K,01,02,03"
Andover Sch of Montessori,00090805,Private (Non-Public/Non-Special Ed) Schools,Principal,Patti Wilczek,400 South Main,,Andover,MA,01810,978-475-2299,978-475-1290,"PK,K,01,02,03,04,05,06,07,08,09"
Antioch,00950810,Private (Non-Public/Non-Special Ed) Schools,Principal,John Frost,618 Rock Street,,Fall River,MA,02720,508-673-6767,508-676-9597,"PK,K,01,02,03,04,05,06,07,08"
Applewild,00970805,Private (Non-Public/Non-Special Ed) Schools,Principal,Amy Jolly,120 Prospect Street,,Fitchburg,MA,01420,978-342-6053,978-345-5059,"K,01,02,03,04,05,06,07,08,09"
Archbishop Williams High,00400805,Private (Non-Public/Non-Special Ed) Schools,Principal,Michael Volonnino,80 Independence Avenue,,Braintree,MA,02184,781-843-3636,781-843-3782,"09,10,11,12"
Arlington Catholic HS,00100805,Private (Non-Public/Non-Special Ed) Schools,Principal,Stephen Biagioni,16 Medford,,Arlington,MA,02174,781-646-7770,--,"09,10,11,12"
Arlington Children's Center,00100860,Private (Non-Public/Non-Special Ed) Schools,Principal,Matt Dolan,17 Irving Street,,Arlington,MA,02476,781-646-9307,--,"PK,K"
Arlington Heights Nursery,00100850,Private (Non-Public/Non-Special Ed) Schools,Principal,Margaret Potter,127 Lowell Street,,Arlington,MA,02474,781-646-8499,--,PK
Assumption,01860805,Private (Non-Public/Non-Special Ed) Schools,Principal,Julie Olson,17 Grove Street,,Millbury,MA,01527,508-865-5404,508-581-8974,"PK,K,01,02,03,04,05,06,07,08"
Atlas Academy,00790802,Private (Non-Public/Non-Special Ed) Schools,Principal,Michael Gustafson,112 Sladen Street,,Dracut,MA,01826,978-905-8165,978-455-7986,"PK,K,01,02,03"
Atrium,03140810,Private (Non-Public/Non-Special Ed) Schools,Principal,Marshall Carter,69 Grove St.,,Watertown,MA,02472,617-923-4156,617-923-1061,"K,01,02,03,04,05,06"
Austin Prep,02460805,Private (Non-Public/Non-Special Ed) Schools,Principal,James Hickey,101 Willow,,Reading,MA,01867,781-944-4900,--,"06,07,08,09,10,11,12"
Bais Yaakov of Boston,02070860,Private (Non-Public/Non-Special Ed) Schools,Principal,Tsvi Levin,198 Strathmore Road,P O Box 351004,Brighton,MA,02135,617-254-7547,617-254-7549,"09,10,11,12"
Bancroft School,03480815,Private (Non-Public/Non-Special Ed) Schools,Principal,Lisa Baker,110 Shore Dr,,Worcester,MA,01605,508-853-2640,--,"K,01,02,03,04,05,06,07,08,09,10,11,12"
Bard Academy at Simon's Rock,01130860,Private (Non-Public/Non-Special Ed) Schools,Principal,Kristy McMorris,84 Alford Road,,Great Barrington,MA,01230,413-644-4400,413-528-7365,"09,10"
Bay Farm Montessori Acad,00820830,Private (Non-Public/Non-Special Ed) Schools,Principal,Conrad Wildsmith,145 Loring Street,,Duxbury,MA,02332,781-934-7101,--,"PK,K,01,02,03,04,05,06"
Bayberry Christian School,00200810,Private (Non-Public/Non-Special Ed) Schools,Principal,Tina Advani,2736 Falmouth Rd,,Osterville,MA,02655,508-428-9178,508-428-8921,"01,02,03,04,05,06,07,08"
Beacon Scholastic Academy,02070885,Private (Non-Public/Non-Special Ed) Schools,Principal,Kirsten Combs,315 University Avenue,,Westwood,MA,02090,781-251-0590,--,"06,07,08,09,10,11,12"
Beaver Country Day,00460800,Private (Non-Public/Non-Special Ed) Schools,Principal,Kim Samson,791 Hammond Street,,Chestnut Hill,MA,02467,617-734-6950,--,"06,07,08,09,10,11,12"
Belmont Day,00260810,Private (Non-Public/Non-Special Ed) Schools,Principal,Brendan Largay,55 Day School Ln,,Belmont,MA,02478,617-932-3883,617-489-1942,"PK,K,01,02,03,04,05,06,07,08"
Belmont Hill,00260815,Private (Non-Public/Non-Special Ed) Schools,Principal,Richard Melvoin,350 Prospect,,Belmont,MA,02478,617-484-4410,617-484-4688,"07,08,09,10,11,12"
Bement School,00740815,Private (Non-Public/Non-Special Ed) Schools,Principal,Christopher Wilson,94 Old Main Street,POB 8,Deerfield,MA,01342,413-774-7061,413-774-3524,"K,01,02,03,04,05,06,07,08,09"
Berea SDA Acad,00350705,Private (Non-Public/Non-Special Ed) Schools,Principal,Rosalind Aaron,800 Morton St.,,Mattapan,MA,02126,617-436-8301,617-436-8304,"PK,K,01,02,03,04,05,06,07,08"
Berkshire,02670805,Private (Non-Public/Non-Special Ed) Schools,Principal,Pieter Mulder,245 N. Undermountain,,Sheffield,MA,01257,413-229-8511,413-229-1016,"09,10,11,12"
Berkshire Christian School,01520815,Private (Non-Public/Non-Special Ed) Schools,Principal,Heidi Dickerson,PO BOX 1980,,Lenox,MA,01240,413-637-2474,--,"PK,K,01,02,03,04,05,06,07,08,09,10,11,12"
Berkshire Country Day School,02830803,Private (Non-Public/Non-Special Ed) Schools,Principal,Paul Lindenmaier,P O Box 867,,Lenox,MA,01240,413-637-0755,413-637-8927,"PK,K,01,02,03,04,05,06,07,08,09,10,11,12"
Berkshire County Arc,02360850,Private (Non-Public/Non-Special Ed) Schools,Principal,Ken Singer,395 South St.,,Pittsfield,MA,01201,413-499-4241,413-445-7863,
Berkshire Hills SDA Sch,01480805,Private (Non-Public/Non-Special Ed) Schools,Principal,Mark Bugbee,PO Box 2959,,Pittsfield,MA,01202,413-442-5511,413-443-7777,"04,06"
Berkshire Waldorf High School,01130850,Private (Non-Public/Non-Special Ed) Schools,Principal,Stephen Sagarin,PO BOX 905,,Great Barrington,MA,01230,413-298-3800,413-298-5132,"09,10,11,12"
Berkshire Waldorf School,01130805,Private (Non-Public/Non-Special Ed) Schools,Principal,Sue Das,35 West Plain Road,,Great Barrington,MA,01230,413-528-4015,413-240-3246,"PK,K,01,02,03,04,05,06,07,08"
Bethany Christian Acad,01790805,Private (Non-Public/Non-Special Ed) Schools,Principal,Cheri Mccutchen,15 Cape Road,,Mendon,MA,01756,508-634-8171,508-478-4706,"PK,K,01,02,03,04,05,06,07,08,09,10,11,12"
"Birches School, Inc.",01570815,Private (Non-Public/Non-Special Ed) Schools,Principal,Peter Twadell,100 Bedford Road,,Lincoln,MA,01773,781-259-8100,--,"PK,K,01,02,03,04,05,06,07,08"
Bishop Connolly High,00950815,Private (Non-Public/Non-Special Ed) Schools,Principal,E. Christopher Myron,373 Elsbree Street,,Fall River,MA,02720,508-676-1071,508-676-8594,"09,10,11,12"
Bishop Feehan High School,00160805,Private (Non-Public/Non-Special Ed) Schools,Principal,Sean Kane,70 Holcott Dr,,Attleboro,MA,02703,508-226-6223,508-226-7696,"09,10,11,12"
Bishop Fenwick High,02290805,Private (Non-Public/Non-Special Ed) Schools,Principal,Thomas Nunan,99 Margin,,Peabody,MA,01960,978-531-8200,--,"09,10,11,12"
Bishop Stang High,00720850,Private (Non-Public/Non-Special Ed) Schools,Principal,James Benson,500 Slocum Rd,,North Dartmouth,MA,02747,508-996-5602,508-994-6756,"09,10,11,12"
Blessed Sacrament,01370805,Private (Non-Public/Non-Special Ed) Schools,Principal,Paula Fitzgerald,21 Westfield Rd,,Holyoke,MA,01040,413-536-2236,413-534-0795,"PK,K,01,02,03,04,05,06,07,08"
Blessed Sacrament Elem,03070805,Private (Non-Public/Non-Special Ed) Schools,Principal,Susan Morrissey,808 East Street,,Walpole,MA,02081,508-668-2336,508-668-3554,"PK,K,01,02,03,04,05,06,07,08"
Blessed Stephen Bellesini O.S.A. Academy,01490880,Private (Non-Public/Non-Special Ed) Schools,Principal,Julie DiFilippo,94 Bradford Street,,Lawrence,MA,01840,987-989-0004,978-989-9404,"05,06,07,08"
Blue Hill Montessori,00500830,Private (Non-Public/Non-Special Ed) Schools,Principal,David Lilly,163 Turnpike Street,,Canton,MA,02021,781-828-5230,781-828-1716,"PK,K"
Boston College High,00350710,Private (Non-Public/Non-Special Ed) Schools,Principal,Adam Lewis,150 Morrissey Blvd,,Dorchester,MA,02125,617-474-5010,617-474-5015,"09,10,11,12"
Bradford Christian Academy,01280850,Private (Non-Public/Non-Special Ed) Schools,Principal,Victoria Kennedy,97 Oxford Ave,,Bradford,MA,01835,978-373-7900,--,"K,01,02,03,04,05,06,07,08,09,10,11,12"
Bridgeview Montessori School,00360800,Private (Non-Public/Non-Special Ed) Schools,Principal,Sandra Nickerson,885 Sandwich Road,PO Box 270,Sagamore,MA,02561,508-888-3567,508-888-4940,"PK,K,01,02,03,04,05,06"
Brimmer + May,02070871,Private (Non-Public/Non-Special Ed) Schools,Principal,Judy Guild,69 Middlesex Rd,,Chestnut Hill,MA,02467,617-566-7462,617-734-5147,"PK,K,01,02,03,04,05,06,07,08,09,10,11,12"
British International School of Boston,00350950,Private (Non-Public/Non-Special Ed) Schools,Principal,Richard Thornhill,416 Pond Street,,Jamaica Plain,MA,02130,617-522-2261,617-522-0385,"PK,K,01,02,03,04,05,06,07,08,09,10,11,12"
Brockton Area Seventh-day Adventist Academy,00440825,Private (Non-Public/Non-Special Ed) Schools,Principal,Convelle Morton,243 Court Street,,Brockton,MA,02302,508-586-9955,508-586-9956,"PK,K,01,02,03,04,05,06"
Brooks,02110805,Private (Non-Public/Non-Special Ed) Schools,Principal,John Packard,1160 Great Pond Rd,,North Andover,MA,01845,978-686-6101,978-725-6215,"09,10,11,12"
Brookside School,01130812,Private (Non-Public/Non-Special Ed) Schools,Principal,Diane Parks,788 South Street,,Pittsfield,MA,01202,413-528-0535,413-528-3610,"06,07,08,09,10,11,12"
Brookwood,01660805,Private (Non-Public/Non-Special Ed) Schools,Principal,Laura Caron,1 Brookwood Road,,Manchester,MA,01944,978-526-4500,978-526-9303,"PK,K,01,02,03,04,05,06,07,08"
Buckingham Browne Nichols,00490810,Private (Non-Public/Non-Special Ed) Schools,Principal,Jennifer Price,80 Gerrys Landing Rd,,Cambridge,MA,02138,617-547-6100,617-576-1139,"PK,K,01,02,03,04,05,06,07,08,09,10,11,12"
Buxton School Inc,03410890,Private (Non-Public/Non-Special Ed) Schools,Principal,Franny Shuker-Haines,291 South Street,,Williamstown,MA,01267,413-458-3919,413-458-9428,"09,10,11,12"
CATS Academy Boston,02070815,Private (Non-Public/Non-Special Ed) Schools,Principal,Christopher Angell,2001 Washington Street,,Braintree,MA,02184,857-400-9700,--,"09,10,11,12"
Calvary Chapel Academy,02510810,Private (Non-Public/Non-Special Ed) Schools,Principal,Richard Colello,PO Box 409,,Rockland,MA,02370,781-871-1043,781-792-3902,"PK,K,01,02,03,04,05,06,07,08,09,10,11,12"
Cambridge Friends,00490995,Private (Non-Public/Non-Special Ed) Schools,Principal,David Tierney,5 Cadbury Rd,,Cambridge,MA,02140,617-354-3880,617-876-1815,"PK,K,01,02,03,04,05,06,07,08"
Cambridge Montessori,00490960,Private (Non-Public/Non-Special Ed) Schools,Principal,Ingrid Tucker,161 Garden Street,,Cambridge,MA,02138,617-492-3410,617-576-5154,"PK,K,01,02,03,04,05,06"
Cambridge School of Weston,03300805,Private (Non-Public/Non-Special Ed) Schools,Principal,Jane Moulding,45 Georgian Rd,,Weston,MA,02493,781-642-8600,781-398-8344,"09,10,11,12"
Campus School of Smith College,02100820,Private (Non-Public/Non-Special Ed) Schools,Principal,Lulu Kellogg,33 Prospect Street,,Northampton,MA,01063,413-585-3270,413-585-3285,"K,01,02,03,04,05,06"
Cape Cod Academy,00200830,Private (Non-Public/Non-Special Ed) Schools,Principal,Jeffry Thompson,50 Osterville West Barnstable Road,,Osterville,MA,02655,508-428-5400,508-428-0701,"K,01,02,03,04,05,06,07,08,09,10,11,12"
Cape Cod Community College - Project Forward,00200880,Private (Non-Public/Non-Special Ed) Schools,Principal,Peter Daley,2240 Lyanough Road,,W. Barnstable,MA,02668,508-362-2131,508-375-4072,12
Cape Cod Conservatory of Music & Arts,00960820,Private (Non-Public/Non-Special Ed) Schools,Principal,Stephanie Weaver,60 Highfield Drive,,Falmouth,MA,02540,508-540-0611,--,"PK,K"
Catholic Memorial,00350718,Private (Non-Public/Non-Special Ed) Schools,Principal,Thomas Beatty,235 Baker Stree,,West Roxbury,MA,02132,617-469-8000,617-325-0888,"07,08,09,10,11,12"
Cedar Brook SDA School,02470805,Private (Non-Public/Non-Special Ed) Schools,Principal,Sherrie Wall,24 Ralsie Rd,,Rehoboth,MA,02769,508-252-3930,508-252-4378,"PK,K,01,02,03,04,05,06,07"
Central Catholic High,01490810,Private (Non-Public/Non-Special Ed) Schools,Principal,Doreen Keller,300 Hampshire Street,,Lawrence,MA,01841,978-682-0260,508-685-2707,"09,10,11,12"
Chapel Hill Chauncy Hall,03080805,Private (Non-Public/Non-Special Ed) Schools,Principal,Lance Conrad,785 Beaver Street,,Waltham,MA,02452,781-894-2644,781-894-5205,"09,10,11,12"
Charles River,00780805,Private (Non-Public/Non-Special Ed) Schools,Principal,Gretchen Larkin,56 Centre,,Dover,MA,02030,508-785-0068,--,"PK,K,01,02,03,04,05,06,07,08"
Charles River Arc,01990850,Private (Non-Public/Non-Special Ed) Schools,Principal,Doreen Cummings,59 East Militia Heights,,Needham,MA,02492,781-444-4347,781-444-5146,
Chestnut Hill School,02070825,Private (Non-Public/Non-Special Ed) Schools,Principal,Diana Blazar,428 Hammond Street,,Chestnut Hill,MA,02467,617-566-4394,617-738-6602,"PK,K,01,02,03,04,05,06"
Cheverus Elementary,01650805,Private (Non-Public/Non-Special Ed) Schools,Principal,Thomas Arria,30 Irving,,Malden,MA,02148,781-324-6584,781-324-3322,"PK,K,01,02,03,04,05,06,07,08"
Child and Family Services,02010870,Private (Non-Public/Non-Special Ed) Schools,Principal,Dawn Pomfret,1061 Pleasant Street,,New Bedford,MA,02740,508-996-8572,508-001-8618,"K,01,02,03,04,05,06,07,08,09,10,11,12"
Children First,01110815,Private (Non-Public/Non-Special Ed) Schools,Principal,Donna Denette,40 Pleasant Street,,Granby,MA,01033,413-467-2345,413-538-9705,PK
Childrens Own School,03440805,Private (Non-Public/Non-Special Ed) Schools,Principal,Jenifer Demko,86 Main Street,,Winchester,MA,01890,781-729-2689,781-729-4192,"PK,K"
Clark School,00710810,Private (Non-Public/Non-Special Ed) Schools,Principal,Jeffrey Clark,14 Forest Ridge Drive,,Rowley,MA,01969,978-777-4699,978-777-7116,"PK,K,01,02,03,04,05,06,07,08,09,10,11,12"
Commonwealth School,00350724,Private (Non-Public/Non-Special Ed) Schools,Principal,William Wharton,151 Commonwealth Avenue,,Boston,MA,02116,617-266-7525,617-266-5769,"09,10,11,12"
Community Christian Academy,01600805,Private (Non-Public/Non-Special Ed) Schools,Principal,Jennifer Najem,105 Princeton Blvd,,Lowell,MA,01851,978-934-4738,978-453-1506,"PK,K,01,02,03,04,05,06,07,08,09,10,11,12"
Community Christian School,03250850,Private (Non-Public/Non-Special Ed) Schools,Principal,Tim Sheranko,PO Box 447,,Westfield,MA,01086,413-564-0316,413-564-0317,"K,01,02,03,04,05,06,07,08,09,10,11,12"
Community and Attainment Transition Program (C.A.,01140840,Private (Non-Public/Non-Special Ed) Schools,Principal,Tom Bruffee,111 Summer Street,,Greenfield,MA,01301,413-774-5558,413-774-2585,
Concord Academy,00670810,Private (Non-Public/Non-Special Ed) Schools,Principal,Sarah Yeh,166 Main,,Concord,MA,01742,978-369-6080,978-369-3452,"09,10,11,12"
Cornerstone Academy,02130803,Private (Non-Public/Non-Special Ed) Schools,Principal,Karen Mcquade,5 Oak Avenue,,Northborough,MA,01532,508-351-9976,508-351-9976,"K,01,02,03,04,05"
Covenant Christian Academy,02290840,Private (Non-Public/Non-Special Ed) Schools,Principal,Andrea Bergstrom,83 Pine St.,,West Peabody,MA,01960,978-535-7100,781-640-9060,"PK,K,01,02,03,04,05,06,07,08,09,10,11,12"
Coyle Cassidy High School and Middle School,02930805,Private (Non-Public/Non-Special Ed) Schools,Principal,Christopher Myron,2 Hamilton Street,,Taunton,MA,02780,508-823-6164,508-823-1565,"06,07,08,09,10,11,12"
Creative Corner School Inc,03440830,Private (Non-Public/Non-Special Ed) Schools,Principal,Sam Russo,11 Sheridan Circle,,Winchester,MA,01890,781-721-5566,781-721-5585,"PK,K"
Cristo Rey Boston High School,00490875,Private (Non-Public/Non-Special Ed) Schools,Principal,Tom Ryan,100 Savin Hill Avenue,,Boston,MA,02125,617-825-2580,617-825-2613,"09,10,11,12"
Croft School,00350802,Private (Non-Public/Non-Special Ed) Schools,Principal,Peter Cipparone,3815 Washington Street,,Jamaica Plain,MA,02130,617-851-1594,--,"K,01"
Cushing Academy,00110805,Private (Non-Public/Non-Special Ed) Schools,Principal,Randy Bertin,39 School Street,,Ashburnham,MA,01430,978-827-7101,978-827-7500,"09,10,11,12"
Dana Hall,03170815,Private (Non-Public/Non-Special Ed) Schools,Principal,Caroline Erisman,45 Dana Road,P O Box 9010,Wellesley,MA,02482,781-235-3010,617-235-6491,"06,07,08,09,10,11,12"
Dartmouth Early Learning Center,00720805,Private (Non-Public/Non-Special Ed) Schools,Principal,Michael Hubert,284 Gulf Hill Road,,Dartmouth,MA,02748,508-992-1301,508-992-1301,"PK,K,01,02,03"
Dayspring Christian,00160806,Private (Non-Public/Non-Special Ed) Schools,Principal,Jason Detty,1052 Newport Avenue,,South Attleboro,MA,02703,508-761-5552,--,"PK,K,01,02,03,04,05,06,07,08"
Dedham Country Day,00730805,Private (Non-Public/Non-Special Ed) Schools,Principal,Allison Webster,90 Sandy Valley Rd,,Dedham,MA,02026,781-329-0850,--,"PK,K,01,02,03,04,05,06,07,08"
Deerfield Academy,00740805,Private (Non-Public/Non-Special Ed) Schools,Principal,John Austin,7 Boyden Lane,PO Box 87,Deerfield,MA,01342,413-772-1425,413-772-1100,"09,10,11,12"
Delphi Academy,01890803,Private (Non-Public/Non-Special Ed) Schools,Principal,Corinne Perkins,564 Blue Hill Avenue,,Milton,MA,02186,617-333-9610,--,"K,01,02,03,04,05,06,07,08"
Derby Academy,01310810,Private (Non-Public/Non-Special Ed) Schools,Principal,Joseph Perry,56 Burditt Avenue,,Hingham,MA,02043,781-749-0746,617-740-2542,"PK,K,01,02,03,04,05,06,07,08"
"Dexter Southfield, Inc.",00460890,Private (Non-Public/Non-Special Ed) Schools,Principal,Todd Vincent,20 Newton,,Brookline,MA,02445,617-522-5544,--,"PK,K,01,02,03,04,05,06,07,08,09,10,11,12"
ECOLE FRANCAISE GREATER BOSTON - EFGB,00490805,Private (Non-Public/Non-Special Ed) Schools,Principal,Herve SEUX,799 Concord Ave,,Cambridge,MA,02138,339-970-9596,--,"K,01,02,03,04,05"
Eaglebrook,00740810,Private (Non-Public/Non-Special Ed) Schools,Principal,Andrew Chase,271 Pine Nook Rd,,Deerfield,MA,01342,413-774-7411,413-772-2394,"06,07,08,09"
Early Learning Child Care,02010803,Private (Non-Public/Non-Special Ed) Schools,Principal,Marjorie Ursini,322 Maxfield Street,,New Bedford,MA,02740,508-996-3774,508-996-4477,PK
East Boston Central Catholic,00350732,Private (Non-Public/Non-Special Ed) Schools,Principal,Robert Casaletto,69 London,,East Boston,MA,02128,617-567-7456,--,"PK,K,01,02,03,04,05,06,07,08"
East Gate Christian Academy,00950828,Private (Non-Public/Non-Special Ed) Schools,Principal,Charlene Robillard,397 Bay Street,,Fall River,MA,02724,508-730-1735,508-674-6166,"PK,K,01,02,03,04,05,06,07,08,09,10,11,12"
Elements Academy,02430835,Private (Non-Public/Non-Special Ed) Schools,Principal,Heather DiNino,48 Winthrop Ave,,Quincy,MA,02170,617-959-1379,--,"PK,K,01,02,03,04,05,06,07,08,09,10,11,12"
Epiphany School,00350729,Private (Non-Public/Non-Special Ed) Schools,Principal,Michelle Sanchez,154 Centre Street,,Dorchester,MA,02124,617-326-0425,617-326-0424,"05,06,07,08"
Epstein Hillel School,01680800,Private (Non-Public/Non-Special Ed) Schools,Principal,Amy Gold,6 Community Road,,Marblehead,MA,01945,781-639-2880,781-631-2832,"K,01,02,03,04,05,06,07,08"
Esperanza Academy,01490860,Private (Non-Public/Non-Special Ed) Schools,Principal,Delia Duran clark,198 Garden Street,,Lawrence,MA,01840,978-686-4673,978-681-1591,"05,06"
Espirito Santo,00950830,Private (Non-Public/Non-Special Ed) Schools,Principal,Andrew Raposo,143 Everett Street,,Fall River,MA,02723,508-672-2229,508-672-7724,"PK,K,01,02,03,04,05,06,07,08"
Fair Acres Country Day School,00200802,Private (Non-Public/Non-Special Ed) Schools,Principal,Shannon Nasuti,35 Fair Acres Drive,,Marston Mills,MA,02648,508-420-3288,508-420-1710,"PK,K"
Faith Christian,01070825,Private (Non-Public/Non-Special Ed) Schools,Principal,Jean Lodge,384 Washington Street,,Gloucester,MA,01930,978-283-8856,--,"PK,K,01,02,03,04,05,06,07,08"
Faith Christian School,00200825,Private (Non-Public/Non-Special Ed) Schools,Principal,Beverly Robedee,270 Communication Way,Bldg 3C,Hyannis,MA,02601,508-775-5350,770-387-2266,"PK,K,01,02,03,04,05,06,07,08,09,10,11,12"
Falmouth Academy,00960805,Private (Non-Public/Non-Special Ed) Schools,Principal,Matthew Green,7 Highfield Dr,,Falmouth,MA,02540,508-457-9696,508-457-4112,"07,08,09,10,11,12"
Family School,00410805,Private (Non-Public/Non-Special Ed) Schools,Principal,Marcia Galazzi,3570 Main Street,,Brewster,MA,02631,508-896-6555,508-896-2044,PK
Fay,02760805,Private (Non-Public/Non-Special Ed) Schools,Principal,Robert Gustavson,48 Main Street,,Southborough,MA,01772,508-485-0100,508-485-5381,"01,02,03,04,05,06,07,08,09"
Fayerweather Street,00490840,Private (Non-Public/Non-Special Ed) Schools,Principal,Edward Kuh,765 Concord Avenue,,Cambridge,MA,02138,617-876-4746,617-520-6700,"PK,K,01,02,03,04,05,06,07,08"
Fenn,00670850,Private (Non-Public/Non-Special Ed) Schools,Principal,Derek Boonisar,516 Monument,,Concord,MA,01742,978-369-5800,978-371-7520,"04,05,06,07,08,09"
Fessenden School,02070855,Private (Non-Public/Non-Special Ed) Schools,Principal,David Stettler,250 Waltham,,West Newton,MA,02465,617-964-5350,617-965-4072,"K,01,02,03,04,05,06,07,08,09"
First Baptist Christian,03360815,Private (Non-Public/Non-Special Ed) Schools,Principal,Elaine Allshouse,40 West Street,,Weymouth,MA,02190,781-335-6232,781-335-7901,"PK,K,01,02,03,04,05,06"
First Lutheran,01370815,Private (Non-Public/Non-Special Ed) Schools,Principal,Marianne Bischoff,1810 Northampton Street,,Holyoke,MA,01040,413-532-4272,413-534-4239,"PK,K,01,02,03,04,05,06,07,08"
Fontbonne Academy,01890805,Private (Non-Public/Non-Special Ed) Schools,Principal,Maura Spignesi,930 Brook Rd,,Milton,MA,02186,617-696-3241,617-696-7688,"09,10,11,12"
Four Winds School,01060830,Private (Non-Public/Non-Special Ed) Schools,Principal,Becca Lipton,54 French King Hwy,,Gill,MA,01354,413-863-8055,--,"06,07,08"
Full Circle,00290805,Private (Non-Public/Non-Special Ed) Schools,Principal,John Friends,Parmenter Rd,,Bernardston,MA,01337,413-648-9468,--,"PK,K,01,02,03,04,05,06"
Full Gospel Christian School,03250820,Private (Non-Public/Non-Special Ed) Schools,Principal,Kristina Podzemelnova,110 Union Street,,Westfield,MA,01085,720-357-6052,413-568-4954,"K,01,02,03,04,05,06,07,08"
Fusion Academy Burlington,00480830,Private (Non-Public/Non-Special Ed) Schools,Principal,Robin Abel,100 Summit Drive,Suite 200,Burlington,MA,01803,781-512-0505,--,"06,07,08,09,10,11,12"
Fusion Academy Hingham,01310835,Private (Non-Public/Non-Special Ed) Schools,Principal,Jacob Weaver,99 Derby Street,Suite 103,Hingham,MA,02043,781-793-0788,--,"06,07,08,09,10,11,12"
Gandara New Beginnings,02810833,Private (Non-Public/Non-Special Ed) Schools,Principal,Korie Johnson,306 Race Street,Lower Level,Holyoke,MA,01040,413-533-3504,413-533-3504,"09,10,11,12"
Gann Academy-The New Jewish High School,03080865,Private (Non-Public/Non-Special Ed) Schools,Principal,Dalia Hochman,333 Forest Street,,Waltham,MA,02452,781-642-6800,781-642-6805,"09,10,11,12"
Gateways Academy,02710830,Private (Non-Public/Non-Special Ed) Schools,Principal,Cynthia Ahearn,10 Stanley Road,,Shrewsbury,MA,01545,508-523-9406,--,"K,01,02,03,04,05,06,07,08,09,10,11,12"
German International School Boston,00490855,Private (Non-Public/Non-Special Ed) Schools,Principal,Jochen Schnack,57 Holton Street,,Allston,MA,02134,617-783-2600,617-783-2605,"PK,K,01,02,03,04,05,06,07,08,09,10,11,12"
Glen Urquhart,00300850,Private (Non-Public/Non-Special Ed) Schools,Principal,Gretchen Forsyth,74 Hart Street,,Beverly,MA,01915,978-927-1064,978-927-1015,"K,01,02,03,04,05,06,07,08"
Grace Academy,02810817,Private (Non-Public/Non-Special Ed) Schools,Principal,Roman Varakuta,60 Bowles Park,,Springfield,MA,01104,413-241-7305,413-251-3538,"K,01,02,03,04,05,06,07,08,09,10,11,12"
Grace Baptist Christian Academy,00160812,Private (Non-Public/Non-Special Ed) Schools,Principal,Jeffrey Bailey,1000 Oak Hill Ave,,Attleboro,MA,02703,508-222-6283,508-222-6283,"PK,K,01,02,03,04,05,06,07,08,09,10,11,12"
Greater Boston Academy,02840815,Private (Non-Public/Non-Special Ed) Schools,Principal,David Branum,108 Pond Street,,Stoneham,MA,02180,781-438-4253,--,"PK,K,01,02,03,04,05,06,07,08,09,10,11,12"
Greenfield Center,01140805,Private (Non-Public/Non-Special Ed) Schools,Principal,Isabel Spencer,71 Montague City Rd,,Greenfield,MA,01301,413-773-1700,413-774-1135,"K,01,02,03,04,05,06,07,08,09"
Groton Community School,01150802,Private (Non-Public/Non-Special Ed) Schools,Principal,Linda Kosinski,110 Boston Road,,Groton,MA,01450,978-448-6179,978-448-2399,"PK,K"
Groton School,01150815,Private (Non-Public/Non-Special Ed) Schools,Principal,Temba Maqubela,PO Box 991,,Groton,MA,01450,978-448-3363,978-448-6355,"08,09,10,11,12"
Hands on Montessori School,01670810,Private (Non-Public/Non-Special Ed) Schools,Principal,Emily Miller,12 Creeden Street,,Mansfield,MA,02048,508-339-4667,508-339-4315,"PK,K,01,02,03,04,05,06"
Happy Day Child Care Ctr,03480825,Private (Non-Public/Non-Special Ed) Schools,Principal,Sandra Smith,349 Massasoit Rd,,Worcester,MA,01604,508-755-5649,--,"PK,K,01,03"
Harborlight-Stoneridge Montessori School,00300830,Private (Non-Public/Non-Special Ed) Schools,Principal,Paul Horovitz,243 Essex Street,,Beverly,MA,01915,978-922-1008,978-922-0594,"PK,K,01,02,03,04,05,06,07,08"
Hellenic American Academy,01600815,Private (Non-Public/Non-Special Ed) Schools,Principal,David Conway,41 Broadway,,Lowell,MA,01854,978-453-5422,978-970-3554,"PK,K,01,02,03,04,05,06,07,08"
Hillside,01700805,Private (Non-Public/Non-Special Ed) Schools,Principal,Edward Chase,404 Robin Hill Street,,Marlborough,MA,01752,508-303-5704,508-485-4420,"05,06,07,08,09"
Holden Christian Acad,01340810,Private (Non-Public/Non-Special Ed) Schools,Principal,Susan Hayward,279 Reservoir Street,,Holden,MA,01520,508-829-4418,508-829-4665,"PK,K,01,02,03,04,05,06,07,08"
Hollow Reed School,00350740,Private (Non-Public/Non-Special Ed) Schools,Principal,Susan Caplan,93 Sedgewick,,Jamaica Plain,MA,02130,617-524-4881,--,PK
Holy Family School,02510815,Private (Non-Public/Non-Special Ed) Schools,Principal,Joan Cahalane,6 Del Prete Avenue,,Rockland,MA,02370,781-878-1154,781-982-2485,"K,01,02,03,04,05,06,07,08"
Holy Family-Holy Name,02010805,Private (Non-Public/Non-Special Ed) Schools,Principal,Peter Schutzler,91 Summer Street,,New Bedford,MA,02740,508-993-3547,508-993-8277,"PK,K,01,02,03,04,05,06,07,08"
Holy Name,00950840,Private (Non-Public/Non-Special Ed) Schools,Principal,David Flanagan,850 Pearce Street,,Fall River,MA,02720,508-674-9131,508-679-0571,"PK,K,01,02,03,04,05,06,07,08"
Holy Name Cen Cath High,03480830,Private (Non-Public/Non-Special Ed) Schools,Principal,Bernard Audette,144 Granite,,Worcester,MA,01604,508-753-6371,508-831-1287,"07,08,09,10,11,12"
Holy Name Elementary,00350746,Private (Non-Public/Non-Special Ed) Schools,Principal,Kathleen Caulfield,535 W Roxbury Pkwy,,West Roxbury,MA,02132,617-325-9338,--,"PK,K,01,02,03,04,05,06,07,08"
Holy Trinity Regional,01260810,Private (Non-Public/Non-Special Ed) Schools,Principal,Edward Healey,245 Main Street,,West Harwich,MA,02671,508-432-8216,508-432-9349,PK
Holy Trinity School,00950890,Private (Non-Public/Non-Special Ed) Schools,Principal,Brenda Gagnon,64 Lamphor Street,,Fall River,MA,02721,508-673-6772,508-730-1864,"PK,K,01,02,03,04,05,06,07,08"
Hope Christian School,03380805,Private (Non-Public/Non-Special Ed) Schools,Principal,Gloria Knox,503 South Avenue,,Whitman,MA,02382,781-293-3959,781-447-3668,"PK,K,01,02,03,04,05,07,08"
Immaculate Conception,01600835,Private (Non-Public/Non-Special Ed) Schools,Principal,Catherine Fiorino,218 East Merrimack,,Lowell,MA,01852,978-454-5339,978-454-6593,"PK,K,01,02,03,04,05,06,07,08"
Immaculate Conception,01700810,Private (Non-Public/Non-Special Ed) Schools,Principal,Linda Short,25 Washington Ct,,Marlborough,MA,01752,508-460-3400,508-460-6003,"PK,K,01,02,03,04,05,06,07,08"
Immaculate Conception,02040805,Private (Non-Public/Non-Special Ed) Schools,Principal,Joan Sullivan,1 Washington Street,,Newburyport,MA,01950,978-465-7780,978-234-7331,"K,01,02,03,04,05,06,07,08"
Immaculate Conception Elementary,02480810,Private (Non-Public/Non-Special Ed) Schools,Principal,Donis Tracy,127 Winthrop Avenue,,Revere,MA,02151,781-284-0519,--,"PK,K,01,02,03,04,05,06,07,08"
Immaculate Heart Of Mary,01250810,Private (Non-Public/Non-Special Ed) Schools,Principal,Thomas Dalton,P O Box 1000,,Still River,MA,01467,978-456-8877,978-456-9052,"01,02,03,04,05,06,07,08,09,10,11,12"
Independence Academy,00360820,Private (Non-Public/Non-Special Ed) Schools,Principal,Linda Zuern,118 Waterhouse Road,Suite B,Bourne,MA,02532,774-302-4544,--,"K,01,02,03,04,05,06,07,08,09,10,11,12"
Inly School,02640815,Private (Non-Public/Non-Special Ed) Schools,Principal,Donna Luther,46 Watch Hill Drive,,Scituate,MA,02066,781-545-5544,617-545-6522,"PK,K,01,02,03,04,05,06,07,08"
International School of Boston,00100838,Private (Non-Public/Non-Special Ed) Schools,Principal,Kelsey Loconte,45 Matignon Road,,Cambridge,MA,02140,617-499-1451,617-499-1454,"PK,K"
Jackson School,02070810,Private (Non-Public/Non-Special Ed) Schools,Principal,Susan Niden,200 Jackson Rd,,Newton,MA,02458,617-969-1537,617-244-8596,"K,01,02,03,04,05,06"
Jewish Community Day School,03140832,Private (Non-Public/Non-Special Ed) Schools,Principal,Revi Quintana,57 Stanley Avenue,,Watertown,MA,02472,617-972-1733,617-972-1736,"K,01,02,03,04,05,06,07,08"
John Dewey Academy,01130820,Private (Non-Public/Non-Special Ed) Schools,Principal,David Baum,389 Main Street,,Great Barrington,MA,01230,413-528-9800,--,"10,11,12"
King's Academy,02920825,Private (Non-Public/Non-Special Ed) Schools,Principal,Francis Lucas,262 Swansea Mall Drive,,Swansea,MA,02777,508-379-7300,--,"K,01,02,03,04,05,06,07,08,09,10,11,12"
Kingsley Montessori,00350760,Private (Non-Public/Non-Special Ed) Schools,Principal,Steve Farley,30 Fairfield Street,,Boston,MA,02116,617-226-4931,617-536-7507,"PK,K,01,02,03,04,05,06"
Lander Grinspoon Academy,02100815,Private (Non-Public/Non-Special Ed) Schools,Principal,Deborah Bromberg Seltzer,257 Prospect Street,,Northampton,MA,01060,413-584-6622,413-586-7550,"K,01,02,03,04,05,06"
Lawrence Academy,01150820,Private (Non-Public/Non-Special Ed) Schools,Principal,Daniel Scheibe,26 Powder House Rd,,Groton,MA,01450,978-448-6535,978-448-9208,"09,10,11,12"
Lawrence Catholic Academy,01490802,Private (Non-Public/Non-Special Ed) Schools,Principal,Mary Kelly,101 Parker Street,,Lawrence,MA,01843,978-683-5822,978-683-1165,"PK,K,01,02,03,04,05,06,07,08"
Legacy Christian Academy,02200815,Private (Non-Public/Non-Special Ed) Schools,Principal,Katrina Joseph,1 New Taunton Avenue,,Norton,MA,02766,508-952-2997,508-952-2977,"PK,K,01,02,03,04,05,06,07,08,09,10,11,12"
Lesley Ellis,00100842,Private (Non-Public/Non-Special Ed) Schools,Principal,Deanne Benson,34 Winter Street,,Arlington,MA,02474,781-641-5987,781-641-1052,"PK,K,01,02,03,04,05,06,07"
Lexington Christian Academy,01550805,Private (Non-Public/Non-Special Ed) Schools,Principal,Christine Metzger,48 Bartlett Avenue,,Lexington,MA,02420,781-862-7850,781-863-8503,"06,07,08,09,10,11,12"
Lexington Montessori,01550820,Private (Non-Public/Non-Special Ed) Schools,Principal,Aline Gery,130 Pleasant Street,,Lexington,MA,02421,781-862-8571,781-674-0079,"PK,K,01,02,03,04,05,06"
LightHouse Holyoke,01370850,Private (Non-Public/Non-Special Ed) Schools,Principal,Catherine Gobron,208 Race Street,,Holyoke,MA,01040,413-420-8299,--,"07,08,09,10,11,12"
Lighthouse Baptist Christian Academy,01330805,Private (Non-Public/Non-Special Ed) Schools,Principal,William Crump,PO Box 434,,Holbrook,MA,02343,781-767-2102,781-767-5386,"PK,K,01,02,03,04,05,06,07,08,09,10,11,12"
Lilliput School,02710812,Private (Non-Public/Non-Special Ed) Schools,Principal,Linda Sullivan,18 Grafton Rd,,Shrewsbury,MA,01545,508-842-0430,508-842-1857,"PK,K,01"
Little People's College,02010823,Private (Non-Public/Non-Special Ed) Schools,Principal,Jennifer Hose,850 Church Street,,New Bedford,MA,02745,508-998-1978,--,PK
Little People's Preschool,01800805,Private (Non-Public/Non-Special Ed) Schools,Principal,Doreen Webb,61 West Main Street,,Merrimac,MA,01860,978-346-4944,978-346-4944,PK
Lovell Academy,02510830,Private (Non-Public/Non-Special Ed) Schools,Principal,Beth Metzler,120 Bill Delahunt Parkway,,Rockland,MA,02370,617-771-5780,--,"08,09,10,11,12"
Lowell Catholic,01600870,Private (Non-Public/Non-Special Ed) Schools,Principal,Maryellen DeMarco,530 Stevens,,Lowell,MA,01851,978-452-1794,978-452-5646,"PK,K,01,02,03,04,05,06,07,08,09,10,11,12"
Lumen Verum Academy,00400845,Private (Non-Public/Non-Special Ed) Schools,Principal,Karen Celano,60 Brooks Drive,,Braintree,MA,02184,617-779-3605,--,"06,07,08"
"Lycee International de Boston/International School of Boston, Inc.",00490838,Private (Non-Public/Non-Special Ed) Schools,Principal,Richard Ulffers,45 Matignon Road,,Cambridge,MA,02140,617-583-9200,617-499-1454,"01,02,03,04,05,06,07,08,09,10,11,12"
Mad Brook Academy,02150810,Private (Non-Public/Non-Special Ed) Schools,Principal,Joan Hubacz,34 Hillsville Rd,,North Brookfield,MA,01535,508-867-9057,--,PK
Maimonides,00460810,Private (Non-Public/Non-Special Ed) Schools,Principal,Scott Mattoon,34 Philbrick Rd,,Brookline,MA,02445,617-232-4452,617-566-2061,"K,01,02,03,04,05,06,07,08,09,10,11,12"
Malden Catholic High,01650830,Private (Non-Public/Non-Special Ed) Schools,Principal,Rose Maria Redman,99 Crystal,,Malden,MA,02148,781-475-5399,781-397-0573,"09,10,11,12"
Malik Academy,00350801,Private (Non-Public/Non-Special Ed) Schools,Principal,Tazeeya Syed,100 Malcolm X Blvd,,Roxbury Crossing,MA,02120,617-427-0500,--,"01,02,03,04,05"
Mapledene Elem,02320805,Private (Non-Public/Non-Special Ed) Schools,Principal,Pat Kenneally,83 Hollis Street,,Pepperell,MA,01463,978-433-5695,--,"K,01,02,03,04,05"
Massachusetts Mayflower Academy,01740850,Private (Non-Public/Non-Special Ed) Schools,Principal,Amy Michalowski,4 Mill and Main Place,Suite 510,Maynard,MA,01754,978-897-1900,978-897-9839,"09,10,11,12"
Mastery School of Independent Learning,00950805,Private (Non-Public/Non-Special Ed) Schools,Principal,Mary Harding,30 Third Street,,Fall River,MA,02720,774-294-5539,--,"PK,K,01,02,03,04,05,06,07,08"
Mater Dolorosa,01370820,Private (Non-Public/Non-Special Ed) Schools,Principal,Mary Fedora,25 Maple Street,,Holyoke,MA,01040,413-532-2831,413-532-8588,"PK,K,01,02,03,04,05,06,07,08"
Matignon High,00490865,Private (Non-Public/Non-Special Ed) Schools,Principal,Joseph Disarcina,1 Matignon Rd,,Cambridge,MA,02140,617-876-1212,617-661-3905,"09,10,11,12"
Meadowbrook School of Weston,03300810,Private (Non-Public/Non-Special Ed) Schools,Principal,arvind grover,10 Farm Rd,,Weston,MA,02493,781-894-1193,781-894-0557,"PK,K,01,02,03,04,05,06,07,08"
Meetinghouse Montessori School,00400804,Private (Non-Public/Non-Special Ed) Schools,Principal,Caren Putnam,85 Washington Street,,Braintree,MA,02184,781-356-7877,--,"PK,K,01,02,03,04,05"
Mendon Mennonite School,01790830,Private (Non-Public/Non-Special Ed) Schools,Principal,Mark Haldeman,70 Cape Road,,Mendon,MA,01756,508-473-7478,--,"01,02,03,04,05,06,07,08,09"
Meridian Academy,00350951,Private (Non-Public/Non-Special Ed) Schools,Principal,Joshua Abrams,54 Brookside Avenue,,Jamaica Plain,MA,02130,617-277-1118,--,"06,07,08,09"
Meritor Academy,02110810,Private (Non-Public/Non-Special Ed) Schools,Principal,Linda Dunn,860 Turnpike Street,,North Andover,MA,01845,978-794-0616,978-794-8068,PK
Mesivta High School,00350896,Private (Non-Public/Non-Special Ed) Schools,Principal,Moshe Wilhelm,34 Sparhawk Street,,Brighton,MA,02135,617-779-0166,617-779-0166,"09,10,11,12"
MetroWest Christian Acad,00140830,Private (Non-Public/Non-Special Ed) Schools,Principal,Dawn Barnes,350 Pleasant Street,,Ashland,MA,01721,508-881-7404,--,"PK,K,01,02,03,04,05,06,07,08,09,10,11,12"
MetroWest Jewish Day School,01000800,Private (Non-Public/Non-Special Ed) Schools,Principal,Brian Cohen,50 Pamela Road,,Framingham,MA,01701,508-620-5554,508-620-0945,"K,01,02,03,04,05,06,07,08"
Middlesex,00670820,Private (Non-Public/Non-Special Ed) Schools,Principal,Kathleen Giles,1400 Lowell Rd,,Concord,MA,01742,978-371-6548,978-369-3846,"09,10,11,12"
Milton Academy,01890835,Private (Non-Public/Non-Special Ed) Schools,Principal,Todd Bland,170 Centre Street,,Milton,MA,02186,617-898-1798,--,"K,01,02,03,04,05,06,07,08,09,10,11,12"
Miss Hall's,02360805,Private (Non-Public/Non-Special Ed) Schools,Principal,Mary Bazanchuk,492 Holmes Rd,,Pittsfield,MA,01201,413-443-6401,413-448-2994,"09,10,11,12"
Monsignor Haddad Middle,01990812,Private (Non-Public/Non-Special Ed) Schools,Principal,James MacDonald,110 May St.,,Needham,MA,02492,781-449-0133,--,"06,07,08"
Montessori Children's House of West Springfield Inc.,03320840,Private (Non-Public/Non-Special Ed) Schools,Principal,David Ruggiera,118 Riverdale Street,,West Springfield,MA,01089,413-739-2688,--,PK
Montessori School of Angels,03310883,Private (Non-Public/Non-Special Ed) Schools,Principal,Alice Levesque,P. O. Box 1570,,Westport,MA,02790,508-636-0200,508-678-0358,"PK,K,01,02,03,04,05,06,07,08"
Montessori School of Northampton,02100805,Private (Non-Public/Non-Special Ed) Schools,Principal,Mark Dansereau,51 Bates Street,,Northampton,MA,01060,413-586-4538,413-586-7047,"PK,K,01,02,03,04,05"
Montrose,01980850,Private (Non-Public/Non-Special Ed) Schools,Principal,Karen Bohlin,29 North Street,,Medfield,MA,02052,508-359-2423,508-359-2597,"06,07,08,09,10,11,12"
Mother Caroline Academy,00350778,Private (Non-Public/Non-Special Ed) Schools,Principal,Annmarie Quezada,515 Blue Hill Avenue,,Dorchester,MA,02121,617-427-1177,617-427-7788,"05,06,07,08"
Mount Alvernia Academy,02070836,Private (Non-Public/Non-Special Ed) Schools,Principal,Barbara Plunkett,20 Manet Rd,,Chestnut Hill,MA,02467,617-379-5784,617-527-7995,"PK,K,01,02,03,04,05,06"
Mount Alvernia High,02070837,Private (Non-Public/Non-Special Ed) Schools,Principal,Jillian Boudreau,790 Centre,,Newton,MA,02458,617-969-2260,617-969-4246,"07,08,09,10,11,12"
Mount Hope Christian School,00480815,Private (Non-Public/Non-Special Ed) Schools,Principal,Elaine Driscoll,3 McGinnis Drive,,Burlington,MA,01803,781-272-1014,781-272-3830,"PK,K,01,02,03,04,05"
Mullein Hill Christian Academy,01460815,Private (Non-Public/Non-Special Ed) Schools,Principal,Barbara Priestly,25 Staples Shore Road,,Lakeville,MA,02347,774-213-9093,774-213-9087,"PK,K,01,02,03,04,05,06,07,08"
N E Baptist Academy,03230825,Private (Non-Public/Non-Special Ed) Schools,Principal,Kevin Hicks,560 North Main,,West Bridgewater,MA,02379,508-584-5188,508-584-7555,"PK,K,01,02,03,04,05,06,07,08,09,10,11,12"
NE Hebrew Acad Elem and Sec,00460812,Private (Non-Public/Non-Special Ed) Schools,Principal,Esther Ciment,9 Prescott Street,,Brookline,MA,02446,617-731-5330,617-277-0752,"PK,K,01,02,03,04,05,06"
Nantucket Lighthouse School,01970810,Private (Non-Public/Non-Special Ed) Schools,Principal,Emily Miller,1 Rugged Road,,Nantucket,MA,02554,508-228-0427,508-228-2395,"PK,K,01,02,03,04,05,06"
Nantucket New School,01970815,Private (Non-Public/Non-Special Ed) Schools,Principal,John Alden,P.O.Box 2021,,Nantucket,MA,02584,508-228-8569,--,"PK,K,01,02,03,04,05,06,07,08"
Nashoba Brooks,00670825,Private (Non-Public/Non-Special Ed) Schools,Principal,Danielle Heard,200 Strawberry Hill Road,,Concord,MA,01742,978-369-4591,978-287-6142,"PK,K,01,02,03,04,05,06,07,08"
Nativity Prep School,00350782,Private (Non-Public/Non-Special Ed) Schools,Principal,Brian Maher,39 Lamartine Street,,Jamaica Plain,MA,02130,617-442-1993,617-541-4148,"05,06,07,08"
Nativity Prep School,02010828,Private (Non-Public/Non-Special Ed) Schools,Principal,Jay Goldrick,66 Spring Street,,New Bedford,MA,02740,508-994-3800,508-994-3434,"05,06,07,08"
Nazarene Christian Academy,02010829,Private (Non-Public/Non-Special Ed) Schools,Principal,Susan Helm,764 Hathaway Road,,New Bedford,MA,02740,508-992-7944,508-994-1457,"PK,K,01,02,03,04,05,06,07,08,09,10,11,12"
Nazareth Academy,03050825,Private (Non-Public/Non-Special Ed) Schools,Principal,Phyllis Morrison,27 Cordis Street,,Wakefield,MA,01880,781-246-7600,781-246-5400,"09,10,11,12"
Neighborhood School,00350785,Private (Non-Public/Non-Special Ed) Schools,Principal,Tricia Morrow,34 Peter Parley Rd,,Jamaica Plain,MA,02130,617-522-0880,--,"PK,K,01,02,03,04,05,06"
New Beginnings Academy,00350795,Private (Non-Public/Non-Special Ed) Schools,Principal,Cynthia Harris,20 Central Ave,,Hyde Park,MA,02136,617-364-6767,617-364-3383,"PK,K,01,02,03,04,05,06,10,12"
New Covenant School Inc.,00100812,Private (Non-Public/Non-Special Ed) Schools,Principal,Victoria Landers,9 Westminister Ave,,Arlington,MA,02474,781-643-5511,781-347-2220,"PK,K,01,02,03,04,05"
New River Academy,01470815,Private (Non-Public/Non-Special Ed) Schools,Principal,Anthony Erevia,569 Salem End Road,,Framingham,MA,01702,508-626-9961,508-620-6705,"07,08,09,10,11,12"
Newburyport Montessori,02040815,Private (Non-Public/Non-Special Ed) Schools,Principal,Maureen Daley,20 Pleasant Street,,Newburyport,MA,01950,978-462-7165,--,"PK,K"
Newman School,00350794,Private (Non-Public/Non-Special Ed) Schools,Principal,Michael Schafer,247 Marlborough,,Boston,MA,02116,617-267-4530,617-267-7070,"07,08,09,10,11,12"
Newton Country Day School,02070845,Private (Non-Public/Non-Special Ed) Schools,Principal,Barbara Rogers,785 Centre,,Newton,MA,02458,617-244-4246,617-965-5313,"05,06,07,08,09,10,11,12"
Next Generation Children's Center,03260820,Private (Non-Public/Non-Special Ed) Schools,Principal,Rachel Hiipakka,9 Powers Rd,,Westford,MA,01886,978-692-1030,978-692-0217,"PK,K"
Noble Academy,02430855,Private (Non-Public/Non-Special Ed) Schools,Principal,Sufia Hassan,470 South Street,,Quincy,MA,02169,617-472-0519,617-481-6599,"PK,K,01,02,03,04,05"
Noble and Greenough,00730810,Private (Non-Public/Non-Special Ed) Schools,Principal,Catherine Hall,10 Campus Drive,,Dedham,MA,02026,781-326-3700,--,"07,08,09,10,11,12"
North American Hockey Academy,00140818,Private (Non-Public/Non-Special Ed) Schools,Principal,Nelson Sharfman,900 Worcester Street,,Wellesley,MA,02482,508-277-9752,--,"09,10,11,12"
North Shore Christian,01630855,Private (Non-Public/Non-Special Ed) Schools,Principal,Pamela Heintz,26 Urban Street,,Lynn,MA,01904,781-599-2040,781-595-7444,"PK,K,01,02,03,04,05,06,07,08"
North Shore Christian School - Beacon Campus,00300820,Private (Non-Public/Non-Special Ed) Schools,Principal,Pamela Heintz,35 Conant Street,,Beverly,MA,01915,978-921-2888,978-921-0188,"PK,K,01,02,03,04,05"
"North Shore Montessori School, Inc.",02540815,Private (Non-Public/Non-Special Ed) Schools,Principal,Margaret Henry,121 Wethersfield Street,,Rowley,MA,01969,978-948-2237,--,"01,02,03,04,05,06"
Northeast Behavioral Health,01840850,Private (Non-Public/Non-Special Ed) Schools,Principal,Melanie Fried,111 Middleton Road,,Danvers,MA,01923,978-777-2121,978-774-4814,"09,10,11,12"
Northfield Mt Hermon,02160810,Private (Non-Public/Non-Special Ed) Schools,Principal,Brian Hargrove,1 Lamplighter Way,,Mount Hermon,MA,01354,413-498-3233,--,"09,10,11,12"
Norwood Montessori School,02200825,Private (Non-Public/Non-Special Ed) Schools,Principal,Tamiko Porter,462 Walpole St,,Norwood,MA,02062,781-762-3700,--,"PK,K,01,02,03,04,05,06"
Notre Dame Academy,01310815,Private (Non-Public/Non-Special Ed) Schools,Principal,Joan Perrault,1073 Main Street,,Hingham,MA,02043,781-749-5930,617-749-8366,"09,10,11,12"
Notre Dame Academy,03480855,Private (Non-Public/Non-Special Ed) Schools,Principal,Lisa Mancini,425 Salisbury,,Worcester,MA,01609,508-757-6200,--,"07,08,09,10,11,12"
Notre Dame Cristo Rey High School,01490890,Private (Non-Public/Non-Special Ed) Schools,Principal,Anthony Zavagnin,303 Haverhill Street,,Lawrence,MA,01840,978-689-8222,978-689-1967,"09,10,11"
Notre Dame Preparatory High School,00970825,Private (Non-Public/Non-Special Ed) Schools,Principal,Jeffrey Hammond,171 South Street,,Fitchburg,MA,01420,978-343-7635,--,"09,10,11,12"
Oak Meadow School,01580820,Private (Non-Public/Non-Special Ed) Schools,Principal,Jason Scheurle,2 Old Pickard Lane,,Littleton,MA,01460,978-486-9874,--,"PK,K,01,02,03,04,05,06,07,08"
Odyssey Day School,03050820,Private (Non-Public/Non-Special Ed) Schools,Principal,Margaret Douglas,2 Audobon Road,,Wakefield,MA,01880,781-245-6050,781-245-9760,"PK,K,01,02,03,04,05,06,07,08"
Old Colony Montessori Sch,01310817,Private (Non-Public/Non-Special Ed) Schools,Principal,Tracey Buckeridge,247 Gardner Street,,Hingham,MA,02043,781-749-3698,--,"PK,K,01,02,03,04,05"
Our Lady Of Lourdes,02930820,Private (Non-Public/Non-Special Ed) Schools,Principal,Lisa Gilbert,52 First Street,,Taunton,MA,02780,508-822-3746,508-822-1450,"K,01,02,03,04,05"
Our Lady Of The Valley,03040805,Private (Non-Public/Non-Special Ed) Schools,Principal,Marilyn Willand,71 Mendon Street,,Uxbridge,MA,01569,508-278-5851,508-278-0391,"K,01,02,03,04,05,06,07,08"
Our Lady of Perpetual Help Mission Grammar,00350770,Private (Non-Public/Non-Special Ed) Schools,Principal,Aliece Dutson,94 St Alphonsus Street,,Roxbury,MA,02120,617-442-2660,--,"K,01,02,03,04,05,06,07,08"
Our Lady of the Angels,03480860,Private (Non-Public/Non-Special Ed) Schools,Principal,Doreen Albert,1220 Main Street,,Worcester,MA,01603,508-752-5609,--,"PK,K,01,02,03,04,05,06,07,08"
Our Lady of the Assumption,01640820,Private (Non-Public/Non-Special Ed) Schools,Principal,Cynthia Donovan,40 Grove,,Lynnfield,MA,01940,781-599-4422,781-599-9280,"PK,K,01,02,03,04,05,06,07,08"
Our Lady's Academy,03080840,Private (Non-Public/Non-Special Ed) Schools,Principal,Chandra Minor,920 Trapelo Road,,Waltham,MA,02452,781-899-0353,781-891-8734,"PK,K,01,02,03,04,05,06,07,08"
Our Sisters' School,02010855,Private (Non-Public/Non-Special Ed) Schools,Principal,Sarah Herman,145 Brownell Avenue,,New Bedford,MA,02740,508-994-1255,508-994-1355,"05,06"
Paige Academy,00350812,Private (Non-Public/Non-Special Ed) Schools,Principal,Joe Cook,28 Highland Avenue,,Roxbury,MA,02119,617-442-5419,--,"PK,K,01"
Park Street School,00350805,Private (Non-Public/Non-Special Ed) Schools,Principal,Tracy Bradley,67 Brimmer Street,,Boston,MA,02108,617-523-7577,617-523-7576,"K,01,02,03,04,07"
Parkside Christian Academy/Cross Factor Academy,00350947,Private (Non-Public/Non-Special Ed) Schools,Principal,Michael Dixon,322 Centre Street,,Dorchester,MA,02130,617-522-1841,617-524-9583,"PK,K,01,02,03,04,05,06,07,08,09,10,11,12"
Pathways for Learning Preschool,02040850,Private (Non-Public/Non-Special Ed) Schools,Principal,Ellen Ulfelder,9 Pleasant St.,,West Newbury,MA,01985,978-363-2499,--,
Pembroke Hospital,02310805,Private (Non-Public/Non-Special Ed) Schools,Principal,Gary Gilberti,199 Oak Street,,Pembroke,MA,02359,781-829-7000,--,"05,06,07,08,09,10,11,12"
Perry Lane Pre-School,00050810,Private (Non-Public/Non-Special Ed) Schools,Principal,Christopher Sparks,760 Cooper St.,,Agawam,MA,01001,508-789-1616,508-789-2610,PK
Phillips Academy,00090820,Private (Non-Public/Non-Special Ed) Schools,Principal,Raynard Kington,180 Main Street,,Andover,MA,01810,978-749-4000,--,"09,10,11,12"
Pincushion Hill Mont,00140860,Private (Non-Public/Non-Special Ed) Schools,Principal,Christine Kovago,30 Green Street,,Ashland,MA,01721,508-881-2123,508-881-8004,"PK,K,01,02,03"
Pine Cobble,03410830,Private (Non-Public/Non-Special Ed) Schools,Principal,Susannah Wells,163 Gale Road,,Williamstown,MA,01267,413-458-4680,--,"PK,K,01,02,03,04,05,06,07,08"
Pingree,01190805,Private (Non-Public/Non-Special Ed) Schools,Principal,Timothy Johnson,537 Highland,,South Hamilton,MA,01982,978-468-4415,508-468-3258,"09,10,11,12"
Pioneer Valley Christian Academy,02810883,Private (Non-Public/Non-Special Ed) Schools,Principal,Timothy Duff,965 Plumtree Rd,,Springfield,MA,01119,413-782-8031,413-782-8033,"PK,K,01,02,03,04,05,06,07,08,09,10,11,12"
Pioneer Valley Montessori,02810975,Private (Non-Public/Non-Special Ed) Schools,Principal,Margaret Bagge,1524 Parker,,Springfield,MA,01129,413-782-3108,--,"PK,K,01,02,03,04,05,06"
"Plumfield Academy, INC",00710820,Private (Non-Public/Non-Special Ed) Schools,Principal,John Pension,123 Dayton St.,,Danvers,MA,01923,978-304-0273,978-304-0273,"K,01,02,03,04,05,06,07,08"
Pope Francis Preparatory School,00610855,Private (Non-Public/Non-Special Ed) Schools,Principal,Paul Harrington,99 Wendover Road,,Springfield,MA,01118,833-999-7673,413-417-6748,"09,10,11,12"
Pope John XXIII High School,00930820,Private (Non-Public/Non-Special Ed) Schools,Principal,Thomas Mahoney,888 Broadway,,Everett,MA,02149,617-389-0240,617-389-2201,"09,10,11,12"
Presentation of Mary Academy,01810825,Private (Non-Public/Non-Special Ed) Schools,Principal,Rose Redman,209 Lawrence,,Methuen,MA,01844,978-682-9391,978-975-3595,"09,10,11,12"
Quincy Catholic Academy,02430810,Private (Non-Public/Non-Special Ed) Schools,Principal,Catherine Cameron,370 Hancock Street,,Quincy,MA,02171,617-328-3830,617-328-6438,"PK,K,01,02,03,04,05,06,07,08"
Resources for Human Development,00490860,Private (Non-Public/Non-Special Ed) Schools,Principal,Dale Anderson,70 Colby street,,Medford,MA,02155,617-225-0212,339-674-9267,
Riverbend School,01980815,Private (Non-Public/Non-Special Ed) Schools,Principal,Whitney Slade,39 Eliot Street,,Natick,MA,01760,508-655-7333,508-655-3867,"PK,K,01,02,03,04,05,06,07,08"
Riverside Industries,00860850,Private (Non-Public/Non-Special Ed) Schools,Principal,Charlene Gentes,1 Cottage St.,,Easthampton,MA,01027,413-527-2711,413-529-9715,12
Roxbury Latin,00350808,Private (Non-Public/Non-Special Ed) Schools,Principal,Kerry Brennan,101 St Theresa Avenue,,West Roxbury,MA,02132,617-325-4920,--,"07,08,09,10,11,12"
STAR Academy,03170835,Private (Non-Public/Non-Special Ed) Schools,Principal,Larisa Bankovsky,10 Atwood Street,,Wellesley,MA,02482,617-744-9807,--,"PK,K,01,02,03,04,05,06,07,08"
Sacred Heart Elem,01450815,Private (Non-Public/Non-Special Ed) Schools,Principal,James Hayden,329 Bishops Highway,,Kingston,MA,02364,781-585-2114,781-585-6993,"01,02,03,04,05,06"
Sacred Heart Elementary,00350810,Private (Non-Public/Non-Special Ed) Schools,Principal,Monica Haldiman,1035 Canterbury,,Roslindale,MA,02131,617-323-2500,--,"PK,K,01,02,03,04,05,06,07,08"
Sacred Heart Elementary,01630865,Private (Non-Public/Non-Special Ed) Schools,Principal,Kristina Relihan,571R Boston Street,,West Lynn,MA,01905,781-592-7581,781-595-9948,"PK,K,01,02,03,04,05,06,07,08"
Sacred Heart Elementary,03360885,Private (Non-Public/Non-Special Ed) Schools,Principal,Christopher Beza,75 Commercial,,Weymouth,MA,02188,781-335-6010,--,"PK,K,01,02,03,04,05,06,07,08"
Sacred Heart High,01450820,Private (Non-Public/Non-Special Ed) Schools,Principal,James Hayden,Box 152 Route 80,,Kingston,MA,02364,781-585-7511,781-585-1249,"07,08,09,10,11,12"
Sacred Hearts Elementary,01280805,Private (Non-Public/Non-Special Ed) Schools,Principal,Susan Downer,31 South Chestnut Street,,Haverhill,MA,01835,978-373-5451,978-372-1110,"K,01,02,03,04,05,06,07,08"
Saint Augustine,00090835,Private (Non-Public/Non-Special Ed) Schools,Principal,Mark Daley,26 Central Street,,Andover,MA,01810,978-475-2414,--,"PK,K,01,02,03,04,05,06,07,08"
Saint John Paul II Academy - Columbia,00350709,Private (Non-Public/Non-Special Ed) Schools,Principal,Claire Sheridan,790 Columbia Road,,Dorchester,MA,02125,617-265-0019,617-298-2926,"PK,K,01,02,03,04,05,06,07,08"
Saint John Paul II Academy - Lower Mills,00350856,Private (Non-Public/Non-Special Ed) Schools,Principal,Lisa Warshafsky,2214 Dorchester Avenue,,Dorchester,MA,02124,617-296-1210,--,"PK,K,01,02,03,04,05,06,07,08"
Saint John Paul II Academy - Neponset,00350822,Private (Non-Public/Non-Special Ed) Schools,Principal,Nicholas Cuomo,239 Neponset Avenue,,Dorchester,MA,02122,617-825-6262,--,"PK,K,01,02,03,04,05,06,07,08"
Saint John's High School,02710820,Private (Non-Public/Non-Special Ed) Schools,Principal,Margaret Granados,378 Main Street,,Shrewsbury,MA,01545,508-842-8934,508-842-3670,"07,08,09,10,11,12"
Saint Joseph Preparatory High School,00350914,Private (Non-Public/Non-Special Ed) Schools,Principal,Eugene Ward,617 Cambridge Street,,Boston,MA,02134,617-254-8383,617-254-0240,"09,10,11,12"
Saint Mary's Academy,01590805,Private (Non-Public/Non-Special Ed) Schools,Principal,Joan MacDonald,56 Hopkins Place,,Longmeadow,MA,01106,413-567-0907,413-567-7695,"PK,K,01,02,03,04,05,06,07,08"
Saint Paul Diocesan Junior/Senior High School,03480852,Private (Non-Public/Non-Special Ed) Schools,Principal,Michael Clark,144 Granite Street,,Worcester,MA,01604,508-852-5555,--,"07,08,09,10,11,12"
Saint Pius X School,03510805,Private (Non-Public/Non-Special Ed) Schools,Principal,Anne Dailey,321 Wood Road,,South Yarmouth,MA,02664,508-398-6112,508-398-6113,"PK,K,01,02,03,04,05,06,07,08"
Samuel Fuller School,01820802,Private (Non-Public/Non-Special Ed) Schools,Principal,Alia Rivers,6 Plympton Street,,Middleborough,MA,02346,508-947-3217,508-947-3217,"K,01,02,03"
School to Farm Program,00080860,Private (Non-Public/Non-Special Ed) Schools,Principal,Nicolette Robb,893 West St.,,Amherst,MA,01002,413-559-5670,--,11
Shady Hill,00490925,Private (Non-Public/Non-Special Ed) Schools,Principal,Mark Stanek,178 Coolidge Hill,,Cambridge,MA,02138,617-520-5221,617-520-9387,"PK,K,01,02,03,04,05,06,07,08"
Shaloh House Day,00350811,Private (Non-Public/Non-Special Ed) Schools,Principal,Don Rodkin,29 Chestnut Hill Avenue,,Brighton,MA,02135,617-787-5507,617-787-4693,"PK,K,01,02,03,04"
Shore Country Day,00300810,Private (Non-Public/Non-Special Ed) Schools,Principal,Clair Ward,545 Cabot,,Beverly,MA,01915,978-927-1700,978-927-1822,"PK,K,01,02,03,04,05,06,07,08,09"
Shrewsbury Montessori School,02710815,Private (Non-Public/Non-Special Ed) Schools,Principal,Amy Shen,55 Oak Street,,Shrewsbury,MA,01545,508-842-2116,508-845-2491,"PK,K,01,02,03,04,05,06"
Solomon Schechter Day Sch,02070859,Private (Non-Public/Non-Special Ed) Schools,Principal,Rebecca Lurie,125 Wells Avenue,,Newton,MA,02459,617-964-7765,617-964-8693,"K,01,02,03,04,05,06,07,08"
South Boston Catholic Academy,00350836,Private (Non-Public/Non-Special Ed) Schools,Principal,Helenann Civian,866 East Broadway,,South Boston,MA,02127,617-268-2326,--,"PK,K,01,02,03,04,05"
South Lancaster Academy,01470840,Private (Non-Public/Non-Special Ed) Schools,Principal,David Branum,PO Box 1129,,South Lancaster,MA,01561,978-368-8544,--,"PK,K,01,02,03,04,05,06,07,08,09,10,11,12"
South Shore Christian,03360887,Private (Non-Public/Non-Special Ed) Schools,Principal,Mark Jennings,45 Broad Street,,East Weymouth,MA,02188,781-331-4340,781-331-9956,"PK,K,01,02,03,04,05,06,07,08,09,10,11,12"
South Shore SDA School,00400830,Private (Non-Public/Non-Special Ed) Schools,Principal,Yaisa Walcott,250 Washington Street,,Braintree,MA,02184,781-356-7794,--,"01,02,03,04,05,06,07,08"
Sparhawk School,00070865,Private (Non-Public/Non-Special Ed) Schools,Principal,Louise Stilphen,4 Noel Street,,Amesbury,MA,01913,978-388-5354,--,"K,01,02,03,04,05,06,07,08,09,10,11,12"
Springfield Commonwealth Academy,02810861,Private (Non-Public/Non-Special Ed) Schools,Principal,Bridget Choo,1 Ames Hill Drive,,Springfield,MA,01105,413-285-8976,413-363-2874,"06,07,08"
St Agatha Elementary,01890825,Private (Non-Public/Non-Special Ed) Schools,Principal,Nancy Carr,440 Adams Street,,Milton,MA,02186,617-696-3548,617-696-6288,"K,01,02,03,04,05,06,07,08"
St Agnes Elementary,00100810,Private (Non-Public/Non-Special Ed) Schools,Principal,Caitlin Oglesby,39 Medford Street,,Arlington,MA,02174,781-643-9031,781-643-2834,"K,01,02,03,04,05,06,07,08"
St Anna School,01530810,Private (Non-Public/Non-Special Ed) Schools,Principal,Ke;;y Veilleux,213 Lancaster St.,,Leominster,MA,01453,978-534-4770,978-466-1167,"PK,K,01,02,03,04,05,06,07,08,09,10,11,12"
St Anthony Elementary,00930825,Private (Non-Public/Non-Special Ed) Schools,Principal,Kim Palladino,54 Oakes Street,,Everett,MA,02149,617-389-2448,617-389-3769,"PK,K,01,02,03,04,05,06,07,08"
St Bernadette School,02130820,Private (Non-Public/Non-Special Ed) Schools,Principal,Deborah O'Neil,266 Main Street,,Northborough,MA,01532,508-351-9905,508-393-2718,"PK,K,01,02,03,04,05,06,07,08"
St Bernard Elementary,00970845,Private (Non-Public/Non-Special Ed) Schools,Principal,Deborah Wright,254 Summer Street,,Fitchburg,MA,01420,978-342-1948,978-342-1153,"PK,K,01,02,03,04,05,06,07,08"
St Bernard's Cent Cath HS,00970840,Private (Non-Public/Non-Special Ed) Schools,Principal,Robert Blanchard,45 Harvard,,Fitchburg,MA,01420,978-342-3212,508-345-8067,"09,10,11,12"
St Brendan Elementary,00350834,Private (Non-Public/Non-Special Ed) Schools,Principal,Maura Burke,29 Rita Rd,,Dorchester,MA,02124,617-282-3388,--,"K,01,02,03,04,05,06,07,08"
St Bridget,00010815,Private (Non-Public/Non-Special Ed) Schools,Principal,Matthew Collins,455 Plymouth Street,,Abington,MA,02351,781-878-8482,781-878-6566,"K,01,02,03,04,05,06,07,08"
St Bridget Elementary,01000810,Private (Non-Public/Non-Special Ed) Schools,Principal,Cathleen Chaves,832 Worcester Rd,,Framingham,MA,01701,508-875-0181,508-875-9552,"PK,K,01,02,03,04,05,06,07,08"
St Catherine Of Siena,02200805,Private (Non-Public/Non-Special Ed) Schools,Principal,Beth Tanner,249 Nahatan Street,,Norwood,MA,02062,781-769-5354,781-769-7905,"PK,K,01,02,03,04,05,06,07,08"
St Charles Elementary,03470805,Private (Non-Public/Non-Special Ed) Schools,Principal,Donna Cargill,8 Myrtle Street,,Woburn,MA,01801,781-935-4635,781-935-3121,"PK,K,01,02,03,04,05,06,07,08"
St Columbkille Partnership School,00350844,Private (Non-Public/Non-Special Ed) Schools,Principal,Jen Kowieski,25 Arlington,,Brighton,MA,02135,617-254-3110,--,"PK,K,01,02,03,04,05,06,07,08"
St Francis Of Assisi,00400810,Private (Non-Public/Non-Special Ed) Schools,Principal,Brian Cote,850 Washington Street,,Braintree,MA,02184,781-848-0842,781-356-5309,"PK,K,01,02,03,04,05,06,07,08"
St Francis Xavier,00030810,Private (Non-Public/Non-Special Ed) Schools,Principal,Michelle Russo,223 Main Street,,Acushnet,MA,02743,508-995-4313,508-995-0456,"PK,K,01,02,03,04,05,06,07,08"
St Francis Xavier,03360890,Private (Non-Public/Non-Special Ed) Schools,Principal,Robert Murphy,234 Pleasant Street,,South Weymouth,MA,02190,781-335-6868,--,"PK,K,01,02,03,04,05,06,07,08"
St James-St John,02010865,Private (Non-Public/Non-Special Ed) Schools,Principal,Cristina Serra,180 Orchard Street,,New Bedford,MA,02740,508-996-0534,508-717-6969,"PK,K,01,02,03,04,05,06,07,08"
St Jeanne D'Arc Elem,01600860,Private (Non-Public/Non-Special Ed) Schools,Principal,Prescille Malo,68 Dracut,,Lowell,MA,01854,978-453-4114,978-454-8304,"PK,K,01,02,03,04,05,06,07,08"
St Jerome Elementary,03360895,Private (Non-Public/Non-Special Ed) Schools,Principal,James Hauser,598 Bridge Street,,North Weymouth,MA,02191,781-335-1235,--,"PK,K,01,02,03,04,05,06,07,08"
St Joan Of Arc,00610825,Private (Non-Public/Non-Special Ed) Schools,Principal,William McDonald,587 Grattan Street,,Chicopee,MA,01020,413-533-1475,413-533-1418,"PK,K,01,02,03,04,05,06,07,08"
St John Elementary,00350862,Private (Non-Public/Non-Special Ed) Schools,Principal,Claire Cassidy,9 Moon Street,,Boston,MA,02113,617-227-3143,--,"PK,K,01,02,03,04,05,06,07,08"
St John The Baptist,01610805,Private (Non-Public/Non-Special Ed) Schools,Principal,Shelly Rose,217 Hubbard Street,,Ludlow,MA,01056,413-583-8550,413-589-0544,"PK,K,01,02,03,04,05,06,07,08"
St John The Evangelist,00160810,Private (Non-Public/Non-Special Ed) Schools,Principal,Kellie Kickham,13 Hodges Street,,Attleboro,MA,02703,508-222-5062,508-223-1737,"K,01,02,03,04,05,06,07,08"
St John the Baptist Elementary,02290820,Private (Non-Public/Non-Special Ed) Schools,Principal,Valerie Shippen,19 Chestnut Street,,Peabody,MA,01960,978-531-0444,--,"PK,K,01,02,03,04,05,06,07,08"
St John the Evangelist,03170820,Private (Non-Public/Non-Special Ed) Schools,Principal,Michael Dibbert,9 Ledyard Street,,Wellesley Hills,MA,02481,781-235-0300,781-235-0283,"PK,K,01,02,03,04,05,06"
St John the Evangelist Elementary,00500805,Private (Non-Public/Non-Special Ed) Schools,Principal,Christopher Flieger,696 Washington Street,,Canton,MA,02021,781-828-2130,781-828-7563,"PK,K,01,02,03,04,05,06,07,08"
St John's Prep,00710845,Private (Non-Public/Non-Special Ed) Schools,Principal,Keith Crowley,72 Spring Street,,Danvers,MA,01923,978-774-1050,--,"06,07,08,09,10,11,12"
St Joseph,00940815,Private (Non-Public/Non-Special Ed) Schools,Principal,Faith Piazza,100 Spring Street,,Fairhaven,MA,02719,508-996-1983,508-996-1998,"PK,K,01,02,03,04,05,06,07,08"
St Joseph,03160815,Private (Non-Public/Non-Special Ed) Schools,Principal,Beth Boudreau,47 Whitcomb Street,,Webster,MA,01570,508-943-0378,508-949-0581,"PK,K,01,02,03,04,05,06,07,08"
St Joseph Elementary,01330830,Private (Non-Public/Non-Special Ed) Schools,Principal,Gretchen Hawley,143 South Franklin,,Holbrook,MA,02343,781-767-1544,781-767-3975,"PK,K,01,02,03,04,05,06,07,08"
St Joseph Elementary,01760820,Private (Non-Public/Non-Special Ed) Schools,Principal,Robert Murphy,132 High Street,,Medford,MA,02155,781-396-3636,781-396-5478,"PK,K,01,02,03,04,05,06,07,08"
St Joseph Elementary,01990810,Private (Non-Public/Non-Special Ed) Schools,Principal,Charlotte Kelly,90 Pickering,,Needham,MA,02492,781-444-4459,--,"K,01,02,03,04,05"
St Joseph Elementary,03050810,Private (Non-Public/Non-Special Ed) Schools,Principal,Joseph Sullivan,15 Gould Street,,Wakefield,MA,01880,781-245-2081,781-245-0084,"PK,K,01,02,03,04,05,06,07,08"
St Joseph School of All Saints Parish,01280820,Private (Non-Public/Non-Special Ed) Schools,Principal,Carol Simone,56 Oak Terrace,,Haverhill,MA,01832,978-521-4256,978-521-2613,"PK,K,01,02,03,04,05,06,07,08"
St Leo,01530820,Private (Non-Public/Non-Special Ed) Schools,Principal,Nancy Pierce,118 Main,,Leominster,MA,01453,978-537-1007,--,"PK,K,01,02,03,04,05,06,07,08"
St Louis Elementary,01600880,Private (Non-Public/Non-Special Ed) Schools,Principal,Vina Troianello,77 Boisvert Street,,Lowell,MA,01850,978-458-7594,978-454-9289,"PK,K,01,02,03,04,05,06,07,08"
St Margaret Primary School,00360830,Private (Non-Public/Non-Special Ed) Schools,Principal,Elizabeth Hutchison,143 Main Street,,Buzzards Bay,MA,02532,508-759-2213,508-759-8776,"PK,K,01,02,03,04"
St Mark,02760825,Private (Non-Public/Non-Special Ed) Schools,Principal,John Warren,25 Marlboro Rd,,Southborough,MA,01772,508-786-6000,508-786-4088,"09,10,11,12"
St Mary,01500805,Private (Non-Public/Non-Special Ed) Schools,Principal,Cara Maiorano,115 Orchard Street,,Lee,MA,01238,413-243-1079,413-243-1022,"PK,K,01,02,03,04,05,06,07,08"
St Mary Elementary,03440825,Private (Non-Public/Non-Special Ed) Schools,Principal,Kellie Kickham,162 Washington Street,,Winchester,MA,01890,781-729-5515,781-729-1352,"PK,K,01,02,03,04,05"
St Mary Of Annunciation,00710850,Private (Non-Public/Non-Special Ed) Schools,Principal,Stephen Daigle,14 Otis Street,,Danvers,MA,01923,978-774-0307,--,"PK,K,01,02,03,04,05,06,07,08"
St Mary Sacred Heart,02120810,Private (Non-Public/Non-Special Ed) Schools,Principal,Lisa Serak,57 Richards Avenue,,North Attleborough,MA,02760,508-695-3072,508-695-9074,"K,01,02,03,04,05,06,07,08"
St Mary of the Assumption,00460830,Private (Non-Public/Non-Special Ed) Schools,Principal,Christine Nadjarian,67 Harvard Street,,Brookline,MA,02445,617-566-7184,617-731-4078,"PK,K,01,02,03,04,05,06,07,08"
St Mary of the Hills Elem,01890830,Private (Non-Public/Non-Special Ed) Schools,Principal,Julie Marotta,250 Brook Rd,,Milton,MA,02186,617-698-2464,--,"PK,K,01,02,03,04,05,06,07,08"
St Mary's Elementary School,03480895,Private (Non-Public/Non-Special Ed) Schools,Principal,Cynthia Ahearn,50 Richland Street,,Worcester,MA,01610,508-753-1170,508-795-0560,"PK,K,01,02,03,04,05,06"
St Mary's Junior/Senior High,03480896,Private (Non-Public/Non-Special Ed) Schools,Principal,Adam Cormier,50 Richland Street,,Worcester,MA,01610,508-753-1170,508-795-0560,"07,08,09,10,11,12"
St Mary's Parish School - Elementary,03250810,Private (Non-Public/Non-Special Ed) Schools,Principal,Anne Pellan-shea,35 Bartlett Street,,Westfield,MA,01085,413-568-2388,413-568-7460,"PK,K,01,02,03,04,05,06,07,08"
St Mary's Parish School - Secondary,03250815,Private (Non-Public/Non-Special Ed) Schools,Principal,Matthew Collins,27 Bartlett Street,,Westfield,MA,01085,413-568-5692,413-562-3501,"09,10,11,12"
St Michael,00950915,Private (Non-Public/Non-Special Ed) Schools,Principal,Ryan Klein,209 Essex Street,,Fall River,MA,02720,508-678-0266,508-324-4433,"PK,K,01,02,03,04,05,06,07,08"
St Michael Elementary,01600890,Private (Non-Public/Non-Special Ed) Schools,Principal,Mary Elias,21 Sixth St.,,Lowell,MA,01850,978-453-9511,--,"PK,K,01,02,03,04,05,06,07,08"
St Michael Elementary,02110835,Private (Non-Public/Non-Special Ed) Schools,Principal,Susan Gosselin,80 Maple Avenue,,North Andover,MA,01845,978-686-1862,978-688-5144,"PK,K,01,02,03,04,05,06,07,08"
St Monica Elementary,01810815,Private (Non-Public/Non-Special Ed) Schools,Principal,Donna Henderson,212 Lawrence Street,,Methuen,MA,01844,978-686-1801,--,"K,01,02,03,04,05,06,07,08"
St Patrick Elementary,02840830,Private (Non-Public/Non-Special Ed) Schools,Principal,Bailey Magazzu,20 Pleasant Street,,Stoneham,MA,02180,781-438-2593,--,"PK,K,01,02,03,04,05,06,07,08"
St Patrick School and Ed. Center,01600895,Private (Non-Public/Non-Special Ed) Schools,Principal,Joanne Sullivan,311 Adams Street,,Lowell,MA,01854,978-458-4232,978-458-4233,"PK,K,01,02,03,04,05,06,07,08"
St Paul Elementary,01310820,Private (Non-Public/Non-Special Ed) Schools,Principal,Lisa Fasano,18 Fearing Rd,,Hingham,MA,02043,781-749-2407,781-749-8053,"PK,K,01,02,03,04,05,06,07,08"
St Peter Academy,00350890,Private (Non-Public/Non-Special Ed) Schools,Principal,Andrius Dilba,371 West Fourth Street,,South Boston,MA,02127,617-268-0750,--,"PK,K,01,02,03,04,05,06,07,08"
St Peter Central Catholic,03480875,Private (Non-Public/Non-Special Ed) Schools,Principal,Meg Kursonis,865 Main Street,,Worcester,MA,01604,508-791-6496,--,"PK,K,01,02,03,04,05,06,07,08"
St Peter Elem,00490917,Private (Non-Public/Non-Special Ed) Schools,Principal,Patrick Boyden,96 Concord Avenue,,Cambridge,MA,02138,617-547-0101,617-441-8911,"PK,K,01,02,03,04,05,06,07,08"
St Peter Marian,03480850,Private (Non-Public/Non-Special Ed) Schools,Principal,William Driscoll,781 Grove Street,,Worcester,MA,01605,508-852-5555,508-852-7238,"07,08,09,10,11,12"
St Pius V Elementary,01630900,Private (Non-Public/Non-Special Ed) Schools,Principal,Mary Beth Noe,28 Bowler Street,,Lynn,MA,01904,781-593-8292,781-593-6973,"PK,K,01,02,03,04,05,06,07,08"
St Raphael Elementary,01760825,Private (Non-Public/Non-Special Ed) Schools,Principal,Mark Bedrosian,516 High Street,,West Medford,MA,02155,781-483-3373,--,"PK,K,01,02,03,04,05,06,07,08"
St Rose Elementary,00570815,Private (Non-Public/Non-Special Ed) Schools,Principal,Michele Butler,580 Broadway,,Chelsea,MA,02150,617-884-2626,--,"PK,K,01,02,03,04,05,06,07,08"
St Sebastian's School,01990860,Private (Non-Public/Non-Special Ed) Schools,Principal,William Burke,1191 Greendale Avenue,,Needham,MA,02492,781-449-5200,--,"07,08,09,10,11,12"
St Stanislaus,00610835,Private (Non-Public/Non-Special Ed) Schools,Principal,Cecelia Haier,534 Front Street,,Chicopee,MA,01013,413-592-5135,413-598-0187,"PK,K,01,02,03,04,05,06,07,08"
St Stanislaus,00950935,Private (Non-Public/Non-Special Ed) Schools,Principal,Beth Mahoney,37 Rockland Street,P.O.Box 300,Fall River,MA,02724,508-674-6771,508-677-1622,"PK,K,01,02,03,04,05,06,07,08"
St Stanislaus Kostka,00040810,Private (Non-Public/Non-Special Ed) Schools,Principal,Joseph Rogge,108 Summer Street,,Adams,MA,01220,413-743-1091,--,"PK,K,01,02,03,04,05,06,07,08"
St Stephen Elem,03480919,Private (Non-Public/Non-Special Ed) Schools,Principal,Laurie Murphy,355 Grafton,,Worcester,MA,01604,508-755-3209,--,"PK,K,01,02,03,04,05,06,07,08"
St Stephen's Armenian,03140830,Private (Non-Public/Non-Special Ed) Schools,Principal,Houry Boyamian,47 Nichols Ave,,Watertown,MA,02472,617-926-6979,--,"PK,K,01,02,03,04,05"
St Theresa of Avila School,00350894,Private (Non-Public/Non-Special Ed) Schools,Principal,Jean Leahy,40 St Theresa Avenue,,West Roxbury,MA,02132,617-323-1050,--,"PK,K,01,02,03,04,05,06,07,08"
St Thomas The Apostle,03320810,Private (Non-Public/Non-Special Ed) Schools,Principal,Patricia Hottin,75 Pine Street,,West Springfield,MA,01089,413-739-4131,413-731-8768,"PK,K,01,02,03,04,05,06,07,08"
St. Agnes Academy,00700815,Private (Non-Public/Non-Special Ed) Schools,Principal,Fadia Makdisi,30 Carson Avenue,,Dalton,MA,01226,413-684-3143,413-684-3124,"PK,K,01,02,03,04,05,06,07,08"
St. Aloysius Catholic School,01260820,Private (Non-Public/Non-Special Ed) Schools,Principal,Roberta McQuaid,PO BOX 522,,Gilbertville,MA,01031,413-477-1268,413-477-1271,"PK,K,01,02,03,04,05,06,07,08"
St. Benedict Elementary Inc.,01980825,Private (Non-Public/Non-Special Ed) Schools,Principal,Jay Boren,2 Pleasant Street South,,Natick,MA,01760,508-650-1900,--,"K,01,02,03,04,05,06"
St. John Paul II School,00200890,Private (Non-Public/Non-Special Ed) Schools,Principal,Christopher Keavy,120 High School Road,,Hyannis,MA,02601,508-862-6336,508-862-6339,"05,06,07,08,09,10,11,12"
St. Mary of the Annunciation School,01780805,Private (Non-Public/Non-Special Ed) Schools,Principal,Christopher Beza,4 Myrtle Street,,Melrose,MA,02176,781-665-5037,781-665-7321,"PK,K,01,02,03,04,05,06,07,08"
St. Mary's Catholic School,01670850,Private (Non-Public/Non-Special Ed) Schools,Principal,Matthew Bourque,330 Pratt Street,,Mansfield,MA,02048,508-339-4800,508-337-2063,"K,01,02,03,04,05,06,07,08"
St. Mary's High School,01630885,Private (Non-Public/Non-Special Ed) Schools,Principal,David Angeramo,35 Tremont Street,,Lynn,MA,01902,781-596-2007,781-599-4471,"07,08,09,10,11,12"
St. Michael's Academy,02810820,Private (Non-Public/Non-Special Ed) Schools,Principal,Ann Dougal,153 Eddywood Street,,Springfield,MA,01118,413-782-5246,413-782-8137,"PK,K,01,02,03,04,05,06,07,08"
St. Theresa of the Child Jesus School,02740825,Private (Non-Public/Non-Special Ed) Schools,Principal,Kevin Donahue,192 Summer Street,,Somerville,MA,02143,617-666-9116,617-623-9161,"PK,K,01,02,03,04,05,06,07,08"
St. Thomas Aquinas School,03110840,Private (Non-Public/Non-Special Ed) Schools,Principal,Steven Rust,PO Box 323,,West Warren,MA,01092,413-436-5056,413-436-5056,"K,01,02,03,04,05,06,07,08,09,10,11,12"
Stoneleigh Burnham,01140846,Private (Non-Public/Non-Special Ed) Schools,Principal,Stephanie Luebbers,574 Bernardston Rd,,Greenfield,MA,01301,413-774-2711,413-772-2602,"07,08,09,10,11,12"
Striar Hebrew Academy,02660840,Private (Non-Public/Non-Special Ed) Schools,Principal,Julie Galler,100 Ames Street,,Sharon,MA,02067,781-784-8700,781-793-9765,"PK,K,01,02,03,04,05,06"
Su Escuela Language Academy,01310805,Private (Non-Public/Non-Special Ed) Schools,Principal,Sandra Baldeon,75 William B Terry Drive,,Hingham,MA,02043,781-741-5454,781-741-5450,"PK,K,01,02,03,04,05"
Su Escuela Language Academy,01310840,Private (Non-Public/Non-Special Ed) Schools,Principal,Meryl Lawrence,75 Sgt. William B Terry Drive,,Hingham,MA,02043,781-741-5454,781-741-5450,"K,01,02,03,04,05,06"
Sudbury Valley,01000825,Private (Non-Public/Non-Special Ed) Schools,Principal,Mimsy Sadofsky,2 Winch Street,,Framingham,MA,01701,508-877-3030,508-788-0674,"PK,K,01,02,03,04,05,06,07,08,09,10,11,12"
Summit Montessori School,01000868,Private (Non-Public/Non-Special Ed) Schools,Principal,Martha Torrence,283 Pleasant Street,,Framingham,MA,01701,508-872-3630,508-872-3314,"PK,K,01,02,03,04,05,06"
Tabor Academy,01690815,Private (Non-Public/Non-Special Ed) Schools,Principal,Julie Salit,66 Spring Street,,Marion,MA,02738,508-748-2000,--,"09,10,11,12"
Tenacre Country Day,03170830,Private (Non-Public/Non-Special Ed) Schools,Principal,Christian Elliot,78 Benvenue,,Wellesley,MA,02482,781-235-2282,617-237-7057,"PK,K,01,02,03,04,05,06"
Thacher Montessori,01890846,Private (Non-Public/Non-Special Ed) Schools,Principal,Don Grace,1425 Blue Hill Avenue,,Milton,MA,02186,617-361-2522,--,"PK,K,01,02,03,04,05,06,07,08"
Thayer Academy,00400821,Private (Non-Public/Non-Special Ed) Schools,Principal,Ted Koskores,745 Washington Street,,Braintree,MA,02184,781-843-3580,781-380-8785,"06,07,08,09,10,11,12"
The Academy at Charlemont,00530825,Private (Non-Public/Non-Special Ed) Schools,Principal,John Schatz,The Mohawk Trail,,Charlemont,MA,01339,413-339-4912,413-339-4324,"07,08,09,10,11,12"
The Academy at Penguin Hall,03200820,Private (Non-Public/Non-Special Ed) Schools,Principal,Laura Caron,36 Essex Street,,Wenham,MA,01984,978-468-6200,978-468-1929,"09,10,11,12"
The Accord School,02190830,Private (Non-Public/Non-Special Ed) Schools,Principal,Katy Shamitz,76 Accord Park Drive,,Norwell,MA,02061,508-232-0712,--,"05,06,07,08,09,10,11,12"
The Brighton School,01000802,Private (Non-Public/Non-Special Ed) Schools,Principal,Susan Daly,PO Box 3204,,Framingham,MA,01701,508-877-8200,508-877-8200,"PK,K,01,02,03,04,05,06"
The Childrens Castle,03290805,Private (Non-Public/Non-Special Ed) Schools,Principal,Debbie Rogers,694 Main Street,,West Newbury,MA,01985,978-363-2919,978-563-6373,PK
The Common School,00080850,Private (Non-Public/Non-Special Ed) Schools,Principal,Christine Lindeman,521 South Pleasant Street,PO Box 2248,Amherst,MA,01004,413-256-8989,--,"PK,K,01,02,03,04,05"
The Fitzgerald Institute,02130825,Private (Non-Public/Non-Special Ed) Schools,Principal,Erin Fournier,261 Main Street,,Northborough,MA,01532,508-466-8486,--,"PK,K,01,02,03,04,05,06,07,08"
The Gorse Children's Center,02780805,Private (Non-Public/Non-Special Ed) Schools,Principal,Sharon Vogel,27 Morgan Street,,South Hadley,MA,01075,413-533-9819,413-539-5850,PK
The Governor's Academy (formerly Governor Dummer),02030805,Private (Non-Public/Non-Special Ed) Schools,Principal,Peter Quimby,1 Elm Street,,Byfield,MA,01922,978-465-1763,978-463-9896,"09,10,11,12"
The Greenhouse School,02580870,Private (Non-Public/Non-Special Ed) Schools,Principal,Daniel Welch,145 Loring Avenue,,Salem,MA,01970,978-745-4549,508-744-3598,"PK,K,01,02,03,04,05,06,07,08"
The Hathaway School,01630810,Private (Non-Public/Non-Special Ed) Schools,Principal,Joanne Civitarese,25 Bessom Street,,Lynn,MA,01902,781-595-5859,--,"PK,K,01,02,03,04,05,06,07,08"
The Imago School,01740810,Private (Non-Public/Non-Special Ed) Schools,Principal,Daniel Burbeck,1 Percival Street,,Maynard,MA,01754,978-897-0549,978-897-3094,"K,01,02,03,04,05,06,07,08"
The Islamic Academy,01810835,Private (Non-Public/Non-Special Ed) Schools,Principal,Jameelah Shareef,125 Oakland Avenue,,Methuen,MA,01844,978-975-7335,--,"PK,K,01,02,03,04,05,06,07,08"
The Islamic Education School,02480820,Private (Non-Public/Non-Special Ed) Schools,Principal,Rawan Chaaban,41 Marble Street,,Revere,MA,02151,781-284-6540,--,
The Laurel School,00410825,Private (Non-Public/Non-Special Ed) Schools,Principal,Amy Carroll,1436 Long Pond Road,,Brewster,MA,02631,508-896-4934,508-632-6555,"PK,K,01,02,03,04,05"
The Learning Project,00350765,Private (Non-Public/Non-Special Ed) Schools,Principal,Michael Mccord,107 Marlborough,,Boston,MA,02115,617-266-8427,617-266-3543,"K,01,02,03,04,05,06"
The Macduffie School,02810855,Private (Non-Public/Non-Special Ed) Schools,Principal,Steven Griffin,66 School Street,,Granby,MA,01033,413-255-0000,413-467-1607,"06,07,08,09,10,11,12"
The Montessori School of The Berkshires,01520820,Private (Non-Public/Non-Special Ed) Schools,Principal,Todd Covert,PO Box 422,,Lenox Dale,MA,01242,413-637-3662,413-637-3665,"PK,K,01,02,03,04,05,06,07,08"
The Nativity School of Worcester,03480805,Private (Non-Public/Non-Special Ed) Schools,Principal,Emily Kent,67 Lincoln Street,,Worcester,MA,01605,508-799-0100,508-799-3951,"05,06,07,08"
The New Testament Christian School,02390820,Private (Non-Public/Non-Special Ed) Schools,Principal,Rodd Rodriguez,1120 Long Pond Road,,Plymouth,MA,02360,508-888-1879,508-833-0920,"K,01,02,03,04,05,06,07,08,09,10,11,12"
The Park School,00460814,Private (Non-Public/Non-Special Ed) Schools,Principal,Scott Young,171 Goddard Avenue,,Brookline,MA,02445,617-277-2456,--,"PK,K,01,02,03,04,05,06,07,08,09"
"The Partnership School of Cape Cod, Inc",02240805,Private (Non-Public/Non-Special Ed) Schools,Principal,Stephanie Sehrawey,17 Nell's Way,,Orleans,MA,02653,774-801-2287,--,"PK,K,01,02,03,04,05"
The Phoenix School,02580855,Private (Non-Public/Non-Special Ed) Schools,Principal,Leslie Levesque,28 Goodhue Street,,Salem,MA,01970,978-741-0870,978-741-5696,"PK,K,01,02,03,04,05,06,07,08"
The Pike School Inc,00090825,Private (Non-Public/Non-Special Ed) Schools,Principal,John Waters,34 Sunset Rock Rd,,Andover,MA,01810,978-475-1197,--,"PK,K,01,02,03,04,05,06,07,08,09"
The Pinecroft School,02180805,Private (Non-Public/Non-Special Ed) Schools,Principal,Donna Pinto,133 Tremont Street,,Rehoboth,MA,02769,508-252-5502,508-252-5502,"K,01,02,03,04,05"
The Rashi School,02070818,Private (Non-Public/Non-Special Ed) Schools,Principal,Adam Fischer,8000 Great Meadow Road,,Dedham,MA,02026,617-969-4444,617-969-9949,"K,01,02,03,04,05,06,07,08"
The Rivers School,03300815,Private (Non-Public/Non-Special Ed) Schools,Principal,Edward Parsons,333 Winter Street,,Weston,MA,02493,781-235-9300,781-239-3614,"06,07,08,09,10,11,12"
The Sage School,00990825,Private (Non-Public/Non-Special Ed) Schools,Principal,Marie Leary,171 Mechanic Street,,Foxborough,MA,02035,508-543-9619,--,"PK,K,01,02,03,04,05,06,07,08"
The Saints Academy,00300815,Private (Non-Public/Non-Special Ed) Schools,Principal,Kelly Fernald,111 New Balch Street,,Beverly,MA,01915,978-922-0048,978-921-5800,"PK,K,01,02,03,04,05,06,07,08"
The Tobin School,01980806,Private (Non-Public/Non-Special Ed) Schools,Principal,Lori Davis,73 Cottage Street,,Natick,MA,01760,508-655-5006,508-655-5053,PK
The Tremont School,03300850,Private (Non-Public/Non-Special Ed) Schools,Principal,Behzad Dayanim,575 Virginia Road,,Concord,MA,01742,781-235-4805,--,"05,06,07,08,09,10,11,12"
The Village School,02550850,Private (Non-Public/Non-Special Ed) Schools,Principal,Rise Richardson,On The Common,,Royalston,MA,01368,978-249-3505,978-575-1286,"PK,K,01,02,03,04,05,06"
The Waldorf School of Cape Cod,00360802,Private (Non-Public/Non-Special Ed) Schools,Principal,Roxanne King,840 Sandwich Road,,East Falmouth,MA,02536,508-420-1005,--,"PK,K,01,02,03,04,05,06"
The Wilder School,03440850,Private (Non-Public/Non-Special Ed) Schools,Principal,Jessica Gregory,162 R Washington Street,,Winchester,MA,01890,781-281-8948,--,"K,01,02,03,04,05,06,07,08,09,10,11,12"
The Winchendon School,03430810,Private (Non-Public/Non-Special Ed) Schools,Principal,John Kerney,172 Ash Street,,Winchendon,MA,01475,978-297-1223,978-297-0911,"08,09,10,11,12"
The Winsor,00350910,Private (Non-Public/Non-Special Ed) Schools,Principal,Sarah Pelmas,Pilgrim Rd,,Boston,MA,02215,617-912-1305,--,"05,06,07,08,09,10,11,12"
Torah Academy Inc.,00460805,Private (Non-Public/Non-Special Ed) Schools,Principal,Shmuel Ochs,11 Williston Rd,,Brookline,MA,02445,617-731-3196,617-731-1042,"PK,K,01,02,03,04,05,06,07,08"
Touchstone Community School,01100830,Private (Non-Public/Non-Special Ed) Schools,Principal,Sally Kent,54 Leland Street,,Grafton,MA,01519,508-839-0038,508-839-7331,"PK,K,01,02,03,04,05,06,07,08"
Tower School,01680820,Private (Non-Public/Non-Special Ed) Schools,Principal,Serena Gifford,75 West Shore Drive,,Marblehead,MA,01945,781-631-5800,--,"PK,K,01,02,03,04,05,06,07,08"
Trinity Catholic Academy,00440810,Private (Non-Public/Non-Special Ed) Schools,Principal,Jennifer Roy,37 Erie Avenue,,Brockton,MA,02302,508-583-6237,508-583-6260,"PK,K,01,02,03,04,05,06,07,08"
Trinity Catholic Academy,02770830,Private (Non-Public/Non-Special Ed) Schools,Principal,Angela Symock,11 Pine Street,,Southbridge,MA,01550,508-765-5991,508-765-0237,"PK,K,01,02,03,04,05,06,07,08"
Trinity Christian Academy of Cape Cod,00200860,Private (Non-Public/Non-Special Ed) Schools,Principal,Benjamin Haskell,979 Mary Dunn Road,,Barnstable,MA,02630,508-790-0114,508-790-1293,"PK,K,01,02,03,04,05,06,07,08,09,10,11,12"
Trivium School,01470850,Private (Non-Public/Non-Special Ed) Schools,Principal,William Schmitt,PO Box 597,,South Lancaster,MA,01561,978-365-4795,--,"07,08,09,10,11,12"
Ursuline Academy,00730820,Private (Non-Public/Non-Special Ed) Schools,Principal,Mary Reardon Ferrucci,65 Lowder,,Dedham,MA,02026,781-326-6161,--,"07,08,09,10,11,12"
VHS Learning,01740900,Private (Non-Public/Non-Special Ed) Schools,Principal,Carol DeFuria,4 Mill and Main Place,Suite 510,Maynard,MA,01754,978-897-1900,978-897-9839,"06,07,08,09,10,11,12"
Venerini Academy,03480930,Private (Non-Public/Non-Special Ed) Schools,Principal,Jason Phelps,23 Edward Street,,Worcester,MA,01605,508-753-3210,--,"PK,K,01,02,03,04,05,06,07,08"
Veritas Academy,00200870,Private (Non-Public/Non-Special Ed) Schools,Principal,Thomas Hoffrage,P. O. Box 940,,West Barnstable,MA,02668,508-420-8145,--,"K,01,02,03,04,05,06,07,08"
Veritas Christian Academy,03150820,Private (Non-Public/Non-Special Ed) Schools,Principal,Cindy Wellman,6 Loker Street,,Wayland,MA,01778,508-653-1188,508-653-1180,"K,01,02,03,04,05,06,07,08"
Viewpoint Christian Academy,02770825,Private (Non-Public/Non-Special Ed) Schools,Principal,Adam Rondeau,26 Ellis Rd,,Southbridge,MA,01550,508-764-2219,--,"K,01,02,03,04,05,06,08,10,11,12"
Vineyard Montessori,02960825,Private (Non-Public/Non-Special Ed) Schools,Principal,Deborah Jernegan,P.O.Box 994,,Vineyard Haven,MA,02568,508-693-4090,--,"PK,K,01,02"
Wachusett Hills Christian School,01030805,Private (Non-Public/Non-Special Ed) Schools,Principal,Edie Conrad,100 Colony Rd,,Westminster,MA,01473,978-874-6432,--,"K,01,02,03,04,05,06,07,08"
Waldorf,01550830,Private (Non-Public/Non-Special Ed) Schools,Principal,Wendy Margo,739 Massachusetts Av,,Lexington,MA,02420,781-863-1062,781-863-7221,"PK,K,01,02,03,04,05,06,07,08"
Waldorf School at Moraine Farm,00300822,Private (Non-Public/Non-Special Ed) Schools,Principal,Caroline Horner,701 Cabot Street,,Beverly,MA,01915,978-927-8811,978-927-0691,"PK,K,01,02,03,04,05,06,07,08"
Walnut Hill School for the Arts,01980810,Private (Non-Public/Non-Special Ed) Schools,Principal,Antonio Viva,12 Highland Street,,Natick,MA,01760,508-653-4312,508-653-9593,"09,10,11,12"
Walnut Park Montessori,02070880,Private (Non-Public/Non-Special Ed) Schools,Principal,Nancy Fish,47 Walnut Park,,Newton,MA,02458,617-969-9208,617-969-6408,"PK,K"
Waring School,00300835,Private (Non-Public/Non-Special Ed) Schools,Principal,Timothy Bakland,35 Standley Street,,Beverly,MA,01915,978-927-8793,978-921-2107,"06,07,08,09,10,11,12"
Warren SDA School,03110830,Private (Non-Public/Non-Special Ed) Schools,Principal,Angela Walton,1570 Southbridge Rd,,West Brookfield,MA,01585,413-436-9245,--,"K,01,02,03,05,07,08"
Wellan Montessori School,02070820,Private (Non-Public/Non-Special Ed) Schools,Principal,Elizabeth Black,80 Cresent Ave,,Newton,MA,02459,617-969-4488,617-969-4430,"PK,K,01,02,03,04,05,06,07,08"
West End Day Nursery,02010885,Private (Non-Public/Non-Special Ed) Schools,Principal,Harold Morton,170 Cedar Street,,New Bedford,MA,02740,508-993-6419,--,PK
Westford PK & K at St. Mark's Church,03260810,Private (Non-Public/Non-Special Ed) Schools,Principal,Anne Deardon,75 Cold Spring Rd,PO Box 271,Westford,MA,01886,978-392-1565,978-692-0597,PK
Westwood Lodge,02310806,Private (Non-Public/Non-Special Ed) Schools,Principal,Gary Gilberti,45 Clapboardtree Street,,Westwood,MA,02090,781-829-7000,--,"K,01,02,03,04,05,06,07,08,09,10,11,12"
Whitinsville Christian,02140820,Private (Non-Public/Non-Special Ed) Schools,Principal,Lance Engbers,279 Linwood Avenue,,Whitinsville,MA,01588,508-372-3246,--,"PK,K,01,02,03,04,05,06,07,08,09,10,11,12"
Wilbraham & Monson Academy,03390850,Private (Non-Public/Non-Special Ed) Schools,Principal,Erik Kindblom,423 Main St.,,Wilbraham,MA,01095,413-596-6811,413-596-4108,"06,07,08,09,10,11,12"
Wild Rose Montessori School,00490820,Private (Non-Public/Non-Special Ed) Schools,Principal,Katelyn Shore,2284 Massachusetts Avenue,,Cambridge,MA,02140,804-855-8739,--,"K,01,02,03"
Williston Northampton,00860820,Private (Non-Public/Non-Special Ed) Schools,Principal,Robert Hill,19 Payson Avenue,,Easthampton,MA,01027,413-529-3222,413-529-3392,"07,08,09,10,11,12"
Wilson-Kindelan School,01890815,Private (Non-Public/Non-Special Ed) Schools,Principal,Veronica Guerrero-Macia,158 Blue Hills Parkway,,Milton,MA,02186,339-237-0319,--,"K,01,02,03,04"
Woodside Montessori Academy,01870805,Private (Non-Public/Non-Special Ed) Schools,Principal,Kathleen Gasbarro,350 Village Street,,Millis,MA,02054,508-376-5320,508-590-6644,"PK,K,01,02,03,04,05,06,07,08"
Woodward School for Girls,02430840,Private (Non-Public/Non-Special Ed) Schools,Principal,Alex Magay,1102 Hancock Street,,Quincy,MA,02169,617-773-5610,617-770-1551,"06,07,08,09,10,11,12"
Worcester Academy,03480955,Private (Non-Public/Non-Special Ed) Schools,Principal,Madeline Richards,81 Providence Street,,Worcester,MA,01604,508-754-5302,--,"06,07,08,09,10,11,12"
Worcester SDA School,03480945,Private (Non-Public/Non-Special Ed) Schools,Principal,Tina Jones,2 Airport Dr,,Worcester,MA,01602,508-753-4732,--,"01,02,03,05,06,07,08"
Work Community Independence,03080851,Private (Non-Public/Non-Special Ed) Schools,Principal,Jodi Horn,135 Beaver St.,,Waltham,MA,02452,781-899-8220,781-899-3828,
Xaverian Brothers High,03350805,Private (Non-Public/Non-Special Ed) Schools,Principal,Jacob Conca,800 Clapboardtree Street,,Westwood,MA,02090,781-326-6392,--,"09,10,11,12"
Yeshiva Acad,01590820,Private (Non-Public/Non-Special Ed) Schools,Principal,Noach Kosofsky,1148 Converse,,Longmeadow,MA,01106,413-567-8665,413-567-2233,"PK,K,01,02,03,04,05,06,07,08"
Yeshiva Ohr Yisrael High School for Boys,00350891,Private (Non-Public/Non-Special Ed) Schools,Principal,Uri Feldman,325 Reservoir Road,,Chestnut Hill,MA,02467,781-499-2332,--,"09,10,11,12"
